{
"type": "FeatureCollection",
"name": "yosuiki1",
"crs": { "type": "name", "properties": { "name": "urn:ogc:def:crs:EPSG::2451" } },
"features": [
{ "type": "Feature", "properties": { "機場名": "清水川-17", "井戸径": "350", "井戸深": "50", "種類": "水中", "吐出口径": "150", "出力": "11.0", "管理業者": "㈱小林鑿泉工業所", "管理者": "猪瀬重廣" }, "geometry": { "type": "Point", "coordinates": [ -6899.16469999961555, 34032.550100000575185 ] } },
{ "type": "Feature", "properties": { "機場名": "清水川-11", "井戸径": "", "井戸深": "", "種類": "自吸式", "吐出口径": "125", "出力": "5.5", "管理業者": "㈱小林鑿泉工業所", "管理者": "小野寺利之" }, "geometry": { "type": "Point", "coordinates": [ -5665.698601112003416, 34334.529842678493878 ] } },
{ "type": "Feature", "properties": { "機場名": "清水川-7", "井戸径": "300", "井戸深": "30", "種類": "水中", "吐出口径": "125", "出力": "7.5", "管理業者": "㈱小林鑿泉工業所", "管理者": "戸野塚和俊" }, "geometry": { "type": "Point", "coordinates": [ -5775.01480000000447, 34634.282299999147654 ] } },
{ "type": "Feature", "properties": { "機場名": "清水川-8", "井戸径": "350", "井戸深": "45", "種類": "水中", "吐出口径": "150", "出力": "11.0", "管理業者": "㈱小林鑿泉工業所", "管理者": "小野寺静男" }, "geometry": { "type": "Point", "coordinates": [ -5912.084099999628961, 34565.925599999725819 ] } },
{ "type": "Feature", "properties": { "機場名": "清水川-9", "井戸径": "300", "井戸深": "8", "種類": "斜流", "吐出口径": "300", "出力": "22.0", "管理業者": "㈱小林鑿泉工業所", "管理者": "戸野塚和俊" }, "geometry": { "type": "Point", "coordinates": [ -6277.249900000169873, 34509.13429999910295 ] } },
{ "type": "Feature", "properties": { "機場名": "小野藤-7", "井戸径": "200", "井戸深": "35", "種類": "水中", "吐出口径": "80", "出力": "3.7", "管理業者": "山さく建工㈱", "管理者": "玉野由蔵" }, "geometry": { "type": "Point", "coordinates": [ -8278.376500000245869, 34861.381799999624491 ] } },
{ "type": "Feature", "properties": { "機場名": "小野藤-8", "井戸径": "300", "井戸深": "68", "種類": "水中", "吐出口径": "150", "出力": "18.5", "管理業者": "㈱小林鑿泉工業所", "管理者": "玉野由蔵" }, "geometry": { "type": "Point", "coordinates": [ -8431.536000000312924, 34720.983200000599027 ] } },
{ "type": "Feature", "properties": { "機場名": "小野藤-10", "井戸径": "250", "井戸深": "60", "種類": "水中", "吐出口径": "100", "出力": "5.5", "管理業者": "㈲タナカサクセン", "管理者": "荒川　栄" }, "geometry": { "type": "Point", "coordinates": [ -7450.879300000146031, 33938.73589999973774 ] } },
{ "type": "Feature", "properties": { "機場名": "小野藤-11", "井戸径": "150", "井戸深": "", "種類": "水中汚水", "吐出口径": "150", "出力": "11", "管理業者": "㈱小林鑿泉工業所", "管理者": "荒川　茂" }, "geometry": { "type": "Point", "coordinates": [ -7300.030299999751151, 34045.315600000321865 ] } },
{ "type": "Feature", "properties": { "機場名": "小野藤-12", "井戸径": "", "井戸深": "", "種類": "水中汚水", "吐出口径": "100", "出力": "3.7", "管理業者": "山さく建工㈱", "管理者": "荒川吾三郎" }, "geometry": { "type": "Point", "coordinates": [ -7036.659400000236928, 34041.838800000026822 ] } },
{ "type": "Feature", "properties": { "機場名": "小野藤-20", "井戸径": "", "井戸深": "", "種類": "水中汚水", "吐出口径": "150", "出力": "5.5", "管理業者": "㈱トチナン", "管理者": "渡辺清治" }, "geometry": { "type": "Point", "coordinates": [ -7328.025000000372529, 33656.318299999460578 ] } },
{ "type": "Feature", "properties": { "機場名": "清水川-33", "井戸径": "150", "井戸深": "45", "種類": "自吸式", "吐出口径": "150", "出力": "7.5", "管理業者": "㈱小林鑿泉工業所", "管理者": "椎名昭雄" }, "geometry": { "type": "Point", "coordinates": [ -6547.535993473274175, 32065.660454805427435 ] } },
{ "type": "Feature", "properties": { "機場名": "清水川-31", "井戸径": "200", "井戸深": "8.5", "種類": "自吸式", "吐出口径": "150", "出力": "7.5", "管理業者": "㈱小林鑿泉工業所", "管理者": "福田泰政" }, "geometry": { "type": "Point", "coordinates": [ -6321.463800000026822, 32254.28999999910593 ] } },
{ "type": "Feature", "properties": { "機場名": "清水川-32", "井戸径": "300", "井戸深": "60", "種類": "水中", "吐出口径": "150", "出力": "11.0", "管理業者": "㈱小林鑿泉工業所", "管理者": "椎名功" }, "geometry": { "type": "Point", "coordinates": [ -6114.090499999932945, 32214.312599999830127 ] } },
{ "type": "Feature", "properties": { "機場名": "清水川-30", "井戸径": "300", "井戸深": "60", "種類": "水中", "吐出口径": "125", "出力": "11.0", "管理業者": "㈱小林鑿泉工業所", "管理者": "寺島紀雄" }, "geometry": { "type": "Point", "coordinates": [ -6511.997399999760091, 32578.398000000044703 ] } },
{ "type": "Feature", "properties": { "機場名": "清水川-29", "井戸径": "", "井戸深": "", "種類": "自吸式", "吐出口径": "125", "出力": "5.5", "管理業者": "㈱小林鑿泉工業所", "管理者": "野原栄一" }, "geometry": { "type": "Point", "coordinates": [ -6271.827399999834597, 32678.716700000688434 ] } },
{ "type": "Feature", "properties": { "機場名": "清水川-26", "井戸径": "", "井戸深": "", "種類": "自吸式", "吐出口径": "80", "出力": "2.2", "管理業者": "㈱小林鑿泉工業所", "管理者": "吉光寺健人" }, "geometry": { "type": "Point", "coordinates": [ -5911.156000000424683, 32855.751800000667572 ] } },
{ "type": "Feature", "properties": { "機場名": "清水川-27", "井戸径": "", "井戸深": "", "種類": "自吸式", "吐出口径": "200", "出力": "15.0", "管理業者": "㈱小林鑿泉工業所", "管理者": "野原栄一" }, "geometry": { "type": "Point", "coordinates": [ -6628.684500000439584, 32709.898900000378489 ] } },
{ "type": "Feature", "properties": { "機場名": "清水川-38", "井戸径": "150", "井戸深": "20", "種類": "自吸式", "吐出口径": "100", "出力": "3.7", "管理業者": "㈱小林鑿泉工業所", "管理者": "椎名正" }, "geometry": { "type": "Point", "coordinates": [ -6906.726599999703467, 32722.716199999675155 ] } },
{ "type": "Feature", "properties": { "機場名": "小野藤-155", "井戸径": "250", "井戸深": "63", "種類": "水中", "吐出口径": "125", "出力": "7.5", "管理業者": "㈲タナカサクセン", "管理者": "金沢壮吉" }, "geometry": { "type": "Point", "coordinates": [ -10542.656351193552837, 29395.864250934446318 ] } },
{ "type": "Feature", "properties": { "機場名": "小野藤-4", "井戸径": "300", "井戸深": "92", "種類": "水中", "吐出口径": "150", "出力": "18.5", "管理業者": "山さく建工㈱", "管理者": "渡辺照明" }, "geometry": { "type": "Point", "coordinates": [ -6765.324699999764562, 36043.089500000700355 ] } },
{ "type": "Feature", "properties": { "機場名": "小野藤-2", "井戸径": "300", "井戸深": "100", "種類": "水中", "吐出口径": "125", "出力": "15", "管理業者": "㈲タナカサクセン", "管理者": "渡辺照明" }, "geometry": { "type": "Point", "coordinates": [ -7016.307599999941885, 35975.489099999889731 ] } },
{ "type": "Feature", "properties": { "機場名": "小野藤-1", "井戸径": "300", "井戸深": "98.0", "種類": "水中", "吐出口径": "150", "出力": "18.5", "管理業者": "山さく建工㈱", "管理者": "毛塚博行" }, "geometry": { "type": "Point", "coordinates": [ -7304.083800000138581, 36079.85359999909997 ] } },
{ "type": "Feature", "properties": { "機場名": "小野藤-9", "井戸径": "125", "井戸深": "15", "種類": "自吸式", "吐出口径": "125", "出力": "5.5", "管理業者": "㈱小林鑿泉工業所", "管理者": "荒川　浩" }, "geometry": { "type": "Point", "coordinates": [ -6862.60259999986738, 34720.504699999466538 ] } },
{ "type": "Feature", "properties": { "機場名": "小野藤-144", "井戸径": "300", "井戸深": "100", "種類": "水中", "吐出口径": "150", "出力": "18.5", "管理業者": "㈱小林鑿泉工業所", "管理者": "青山隆男" }, "geometry": { "type": "Point", "coordinates": [ -7666.03070000000298, 34443.456599999219179 ] } },
{ "type": "Feature", "properties": { "機場名": "清水川-3", "井戸径": "350", "井戸深": "45", "種類": "水中", "吐出口径": "150", "出力": "11.0", "管理業者": "㈱小林鑿泉工業所", "管理者": "片野久" }, "geometry": { "type": "Point", "coordinates": [ -6341.975700000301003, 35203.627800000831485 ] } },
{ "type": "Feature", "properties": { "機場名": "清水川-4", "井戸径": "", "井戸深": "30", "種類": "自吸式", "吐出口径": "125", "出力": "5.5", "管理業者": "㈱小林鑿泉工業所", "管理者": "戸野塚和俊" }, "geometry": { "type": "Point", "coordinates": [ -6359.969700000248849, 35078.729800000786781 ] } },
{ "type": "Feature", "properties": { "機場名": "清水川-2", "井戸径": "350", "井戸深": "45", "種類": "水中", "吐出口径": "150", "出力": "11.0", "管理業者": "㈱小林鑿泉工業所", "管理者": "村田正夫" }, "geometry": { "type": "Point", "coordinates": [ -6591.502100000157952, 35179.999900000169873 ] } },
{ "type": "Feature", "properties": { "機場名": "清水川-1", "井戸径": "250", "井戸深": "50", "種類": "水中", "吐出口径": "150", "出力": "18.5", "管理業者": "㈱小林鑿泉工業所", "管理者": "玉野辰夫" }, "geometry": { "type": "Point", "coordinates": [ -6812.335900000296533, 35317.546599999070168 ] } },
{ "type": "Feature", "properties": { "機場名": "小野藤-143", "井戸径": "", "井戸深": "", "種類": "水中汚水", "吐出口径": "100", "出力": "3.7", "管理業者": "山さく建工㈱", "管理者": "渡辺照明" }, "geometry": { "type": "Point", "coordinates": [ -6911.475899999961257, 35555.198499999940395 ] } },
{ "type": "Feature", "properties": { "機場名": "小野藤-5", "井戸径": "300", "井戸深": "40", "種類": "水中", "吐出口径": "100", "出力": "5.5", "管理業者": "山さく建工㈱", "管理者": "渡辺照明" }, "geometry": { "type": "Point", "coordinates": [ -6782.798000000000684, 35781.718 ] } },
{ "type": "Feature", "properties": { "機場名": "清水川-18", "井戸径": "", "井戸深": "", "種類": "水中", "吐出口径": "125", "出力": "11.0", "管理業者": "㈱小林鑿泉工業所", "管理者": "猪瀬進" }, "geometry": { "type": "Point", "coordinates": [ -5966.392599999904633, 33890.131899999454618 ] } },
{ "type": "Feature", "properties": { "機場名": "清水川-12", "井戸径": "200", "井戸深": "20", "種類": "自吸式", "吐出口径": "125", "出力": "5.5", "管理業者": "㈱小林鑿泉工業所", "管理者": "山﨑信雄" }, "geometry": { "type": "Point", "coordinates": [ -5512.069299999624491, 34178.300599999725819 ] } },
{ "type": "Feature", "properties": { "機場名": "清水川-14", "井戸径": "300", "井戸深": "50", "種類": "水中", "吐出口径": "125", "出力": "15.0", "管理業者": "㈱小林鑿泉工業所", "管理者": "山﨑信雄" }, "geometry": { "type": "Point", "coordinates": [ -6175.840499999932945, 34031.166200000792742 ] } },
{ "type": "Feature", "properties": { "機場名": "清水川-15", "井戸径": "350", "井戸深": "60", "種類": "水中", "吐出口径": "150", "出力": "11.0", "管理業者": "㈱小林鑿泉工業所", "管理者": "猪瀬康夫" }, "geometry": { "type": "Point", "coordinates": [ -6432.008899999782443, 34000.656199999153614 ] } },
{ "type": "Feature", "properties": { "機場名": "清水川-16", "井戸径": "350", "井戸深": "50", "種類": "水中", "吐出口径": "150", "出力": "15.0", "管理業者": "㈱小林鑿泉工業所", "管理者": "猪瀬重廣" }, "geometry": { "type": "Point", "coordinates": [ -6667.808899999596179, 34016.789200000464916 ] } },
{ "type": "Feature", "properties": { "機場名": "清水川-10", "井戸径": "350", "井戸深": "45", "種類": "水中", "吐出口径": "150", "出力": "11.0", "管理業者": "㈱小林鑿泉工業所", "管理者": "小林雅幸" }, "geometry": { "type": "Point", "coordinates": [ -6730.781592294663824, 34538.463763127358106 ] } },
{ "type": "Feature", "properties": { "機場名": "清水川-6", "井戸径": "", "井戸深": "", "種類": "自吸式", "吐出口径": "100", "出力": "3.7", "管理業者": "㈱小林鑿泉工業所", "管理者": "岸興平" }, "geometry": { "type": "Point", "coordinates": [ -6220.129099999554455, 34876.078600000590086 ] } },
{ "type": "Feature", "properties": { "機場名": "清水川-5", "井戸径": "", "井戸深": "7.5", "種類": "自吸式", "吐出口径": "125", "出力": "5.5", "管理業者": "㈱小林鑿泉工業所", "管理者": "岸嘉彦" }, "geometry": { "type": "Point", "coordinates": [ -6066.58600000012666, 35108.086100000888109 ] } },
{ "type": "Feature", "properties": { "機場名": "清水川-35", "井戸径": "", "井戸深": "", "種類": "水中", "吐出口径": "100", "出力": "7.5", "管理業者": "㈱小林鑿泉工業所", "管理者": "生井俊光" }, "geometry": { "type": "Point", "coordinates": [ -6811.872800000011921, 33281.609300000593066 ] } },
{ "type": "Feature", "properties": { "機場名": "清水川-25", "井戸径": "", "井戸深": "", "種類": "水中", "吐出口径": "150", "出力": "11.0", "管理業者": "㈱小林鑿泉工業所", "管理者": "鈴木政美" }, "geometry": { "type": "Point", "coordinates": [ -6707.939851627526878, 33279.724723405735858 ] } },
{ "type": "Feature", "properties": { "機場名": "清水川-24", "井戸径": "250", "井戸深": "5", "種類": "自吸式", "吐出口径": "150", "出力": "11.0", "管理業者": "㈱小林鑿泉工業所", "管理者": "福田登志夫" }, "geometry": { "type": "Point", "coordinates": [ -6371.791199999861419, 33266.884700000286102 ] } },
{ "type": "Feature", "properties": { "機場名": "清水川-23", "井戸径": "", "井戸深": "", "種類": "斜流", "吐出口径": "300", "出力": "22.0", "管理業者": "㈱小林鑿泉工業所", "管理者": "福田登志夫" }, "geometry": { "type": "Point", "coordinates": [ -6364.200799999758601, 33275.193099999800324 ] } },
{ "type": "Feature", "properties": { "機場名": "清水川-34", "井戸径": "150", "井戸深": "14", "種類": "自吸式", "吐出口径": "100", "出力": "3.7", "管理業者": "㈱小林鑿泉工業所", "管理者": "柴山孝信" }, "geometry": { "type": "Point", "coordinates": [ -6691.858199999667704, 33644.739299999549985 ] } },
{ "type": "Feature", "properties": { "機場名": "清水川-36", "井戸径": "150", "井戸深": "20", "種類": "自吸式", "吐出口径": "100", "出力": "3.7", "管理業者": "㈱小林鑿泉工業所", "管理者": "小野寺俊昭" }, "geometry": { "type": "Point", "coordinates": [ -6455.836799999698997, 33631.093699999153614 ] } },
{ "type": "Feature", "properties": { "機場名": "清水川-37", "井戸径": "150", "井戸深": "20", "種類": "自吸式", "吐出口径": "100", "出力": "3.7", "管理業者": "㈱小林鑿泉工業所", "管理者": "猪瀬進" }, "geometry": { "type": "Point", "coordinates": [ -6213.321999999694526, 33615.020199999213219 ] } },
{ "type": "Feature", "properties": { "機場名": "清水川-19", "井戸径": "", "井戸深": "", "種類": "自吸式", "吐出口径": "125", "出力": "5.5", "管理業者": "㈱小林鑿泉工業所", "管理者": "浅野昌宏" }, "geometry": { "type": "Point", "coordinates": [ -5765.598699999973178, 33585.871200000867248 ] } },
{ "type": "Feature", "properties": { "機場名": "清水川-20", "井戸径": "", "井戸深": "10", "種類": "自吸式", "吐出口径": "100", "出力": "3.7", "管理業者": "㈱小林鑿泉工業所", "管理者": "山﨑甚治" }, "geometry": { "type": "Point", "coordinates": [ -5662.016800000332296, 33521.495200000703335 ] } },
{ "type": "Feature", "properties": { "機場名": "清水川-21", "井戸径": "300", "井戸深": "41", "種類": "水中", "吐出口径": "125", "出力": "11.0", "管理業者": "㈱小林鑿泉工業所", "管理者": "山﨑甚治" }, "geometry": { "type": "Point", "coordinates": [ -5464.918300000019372, 33440.105100000277162 ] } },
{ "type": "Feature", "properties": { "機場名": "小野藤-145", "井戸径": "250", "井戸深": "90", "種類": "水中", "吐出口径": "125", "出力": "11", "管理業者": "㈲タナカサクセン", "管理者": "見目　守" }, "geometry": { "type": "Point", "coordinates": [ -7470.671299999579787, 33667.572000000625849 ] } },
{ "type": "Feature", "properties": { "機場名": "小野藤-19", "井戸径": "300", "井戸深": "70", "種類": "水中", "吐出口径": "150", "出力": "18.5", "管理業者": "㈱トチナン", "管理者": "高橋好弘" }, "geometry": { "type": "Point", "coordinates": [ -7712.811599999666214, 33674.971100000664592 ] } },
{ "type": "Feature", "properties": { "機場名": "小野藤-18", "井戸径": "300", "井戸深": "70", "種類": "水中", "吐出口径": "125", "出力": "11", "管理業者": "㈱トチナン", "管理者": "松本和己" }, "geometry": { "type": "Point", "coordinates": [ -7990.488599999807775, 33712.705299999564886 ] } },
{ "type": "Feature", "properties": { "機場名": "小野藤-17", "井戸径": "250", "井戸深": "87", "種類": "水中", "吐出口径": "125", "出力": "11", "管理業者": "㈱トチナン", "管理者": "山野井隆也" }, "geometry": { "type": "Point", "coordinates": [ -8264.673600000329316, 33752.655999999493361 ] } },
{ "type": "Feature", "properties": { "機場名": "小野藤-13", "井戸径": "200", "井戸深": "30", "種類": "水中", "吐出口径": "100", "出力": "7.5", "管理業者": "山さく建工㈱", "管理者": "青山敏光" }, "geometry": { "type": "Point", "coordinates": [ -8239.426043690658844, 33979.33054860647826 ] } },
{ "type": "Feature", "properties": { "機場名": "小野藤-16", "井戸径": "125", "井戸深": "15", "種類": "自吸式", "吐出口径": "125", "出力": "5.5", "管理業者": "山さく建工㈱", "管理者": "木本　昭" }, "geometry": { "type": "Point", "coordinates": [ -8404.32120000012219, 33939.790699999779463 ] } },
{ "type": "Feature", "properties": { "機場名": "小野藤-14", "井戸径": "250", "井戸深": "40", "種類": "水中", "吐出口径": "100", "出力": "5.5", "管理業者": "山さく建工㈱", "管理者": "小林正雄" }, "geometry": { "type": "Point", "coordinates": [ -8435.582899999804795, 34246.706700000911951 ] } },
{ "type": "Feature", "properties": { "機場名": "小野藤-15", "井戸径": "350", "井戸深": "70", "種類": "水中", "吐出口径": "150", "出力": "15", "管理業者": "山さく建工㈱", "管理者": "山中　昇" }, "geometry": { "type": "Point", "coordinates": [ -8226.244833295855642, 34309.739555836174986 ] } },
{ "type": "Feature", "properties": { "機場名": "小野藤-25", "井戸径": "100", "井戸深": "8", "種類": "自吸式", "吐出口径": "100", "出力": "3.7", "管理業者": "山さく建工㈱", "管理者": "山中弘道" }, "geometry": { "type": "Point", "coordinates": [ -8240.428100000135601, 33349.815999999642372 ] } },
{ "type": "Feature", "properties": { "機場名": "小野藤-26", "井戸径": "300", "井戸深": "100", "種類": "水中", "吐出口径": "125", "出力": "15", "管理業者": "山さく建工㈱", "管理者": "日髙文夫" }, "geometry": { "type": "Point", "coordinates": [ -8015.281999999657273, 33335.189899999648333 ] } },
{ "type": "Feature", "properties": { "機場名": "小野藤-27", "井戸径": "100", "井戸深": "12", "種類": "自吸式", "吐出口径": "100", "出力": "3.7", "管理業者": "山さく建工㈱", "管理者": "池澤和雄" }, "geometry": { "type": "Point", "coordinates": [ -7760.55379999987781, 33319.284399999305606 ] } },
{ "type": "Feature", "properties": { "機場名": "小野藤-24", "井戸径": "250", "井戸深": "59", "種類": "水中", "吐出口径": "80", "出力": "3.7", "管理業者": "山さく建工㈱", "管理者": "斎部永冶" }, "geometry": { "type": "Point", "coordinates": [ -8455.586600000038743, 33361.489900000393391 ] } },
{ "type": "Feature", "properties": { "機場名": "小野藤-21", "井戸径": "", "井戸深": "", "種類": "水中汚水", "吐出口径": "100", "出力": "5.5", "管理業者": "㈱トチナン", "管理者": "渡部康博" }, "geometry": { "type": "Point", "coordinates": [ -7357.102500000037253, 33292.70240000076592 ] } },
{ "type": "Feature", "properties": { "機場名": "小野藤-22", "井戸径": "", "井戸深": "", "種類": "水中汚水", "吐出口径": "300", "出力": "22", "管理業者": "㈱小林鑿泉工業所", "管理者": "椎名　功" }, "geometry": { "type": "Point", "coordinates": [ -7109.209300000220537, 33014.086899999529123 ] } },
{ "type": "Feature", "properties": { "機場名": "小野藤-23", "井戸径": "200", "井戸深": "50", "種類": "水中", "吐出口径": "80", "出力": "5.5", "管理業者": "㈱小林鑿泉工業所", "管理者": "板垣哲夫" }, "geometry": { "type": "Point", "coordinates": [ -8344.28865718223642, 33002.42133417052537 ] } },
{ "type": "Feature", "properties": { "機場名": "小野藤-153", "井戸径": "250", "井戸深": "35", "種類": "水中", "吐出口径": "80", "出力": "5.5", "管理業者": "山さく建工㈱", "管理者": "浅川正男" }, "geometry": { "type": "Point", "coordinates": [ -7262.23340000025928, 32705.630200000479817 ] } },
{ "type": "Feature", "properties": { "機場名": "小野藤-29", "井戸径": "100", "井戸深": "17", "種類": "自吸式", "吐出口径": "100", "出力": "3.7", "管理業者": "㈱トチナン", "管理者": "板垣哲夫" }, "geometry": { "type": "Point", "coordinates": [ -7802.13910000026226, 32739.976999999955297 ] } },
{ "type": "Feature", "properties": { "機場名": "小野藤-146", "井戸径": "300", "井戸深": "100", "種類": "水中", "吐出口径": "150", "出力": "18.5", "管理業者": "山さく建工㈱", "管理者": "池澤和雄" }, "geometry": { "type": "Point", "coordinates": [ -7776.749132512182769, 33058.664419810564141 ] } },
{ "type": "Feature", "properties": { "機場名": "美田南部-4677", "井戸径": "125", "井戸深": " 25.0 ", "種類": "自吸式", "吐出口径": "125", "出力": "5.5", "管理業者": "野田鑿泉", "管理者": "国分常二" }, "geometry": { "type": "Point", "coordinates": [ -7154.408699999563396, 38996.903200000524521 ] } },
{ "type": "Feature", "properties": { "機場名": "美田南部-7010", "井戸径": "400", "井戸深": " 29.0 ", "種類": "水中", "吐出口径": "100", "出力": "7.5", "管理業者": "野田鑿泉", "管理者": "門沢 治" }, "geometry": { "type": "Point", "coordinates": [ -7581.497000000439584, 39086.915999999269843 ] } },
{ "type": "Feature", "properties": { "機場名": "美田南部-6704", "井戸径": "250", "井戸深": " 30.0 ", "種類": "水中", "吐出口径": "100", "出力": "7.5", "管理業者": "野田鑿泉", "管理者": "黒川信治" }, "geometry": { "type": "Point", "coordinates": [ -7577.632000000216067, 38974.099300000816584 ] } },
{ "type": "Feature", "properties": { "機場名": "美田南部-6454", "井戸径": "300", "井戸深": " 34.0 ", "種類": "水中", "吐出口径": "100", "出力": "7.5", "管理業者": "野田鑿泉", "管理者": "田名網基晴" }, "geometry": { "type": "Point", "coordinates": [ -7795.57799999974668, 38955.224999999627471 ] } },
{ "type": "Feature", "properties": { "機場名": "美田南部-4865", "井戸径": "", "井戸深": " - ", "種類": "自吸式", "吐出口径": "", "出力": "0.0", "管理業者": "野田鑿泉", "管理者": "橋本慎治" }, "geometry": { "type": "Point", "coordinates": [ -7582.785400000400841, 38735.088800000026822 ] } },
{ "type": "Feature", "properties": { "機場名": "美田南部-6343", "井戸径": "250", "井戸深": " 30.0 ", "種類": "水中", "吐出口径": "100", "出力": "7.5", "管理業者": "野田鑿泉", "管理者": "落合 進一" }, "geometry": { "type": "Point", "coordinates": [ -7375.790300000458956, 38739.275900000706315 ] } },
{ "type": "Feature", "properties": { "機場名": "美田南部-5195", "井戸径": "", "井戸深": " - ", "種類": "自吸式", "吐出口径": "", "出力": "0.0", "管理業者": "野田鑿泉", "管理者": "大出佳正" }, "geometry": { "type": "Point", "coordinates": [ -7160.74309999961406, 38730.407800000160933 ] } },
{ "type": "Feature", "properties": { "機場名": "美田南部-5929", "井戸径": "", "井戸深": " - ", "種類": "水中汚水", "吐出口径": "250", "出力": "11.0", "管理業者": "野田鑿泉", "管理者": "㈱若菜畜産" }, "geometry": { "type": "Point", "coordinates": [ -7987.112900000065565, 38636.701700000092387 ] } },
{ "type": "Feature", "properties": { "機場名": "美田南部-2847", "井戸径": "300", "井戸深": " 70.0 ", "種類": "水中", "吐出口径": "150", "出力": "11.0", "管理業者": "野田鑿泉", "管理者": "五月女正" }, "geometry": { "type": "Point", "coordinates": [ -7867.546683037612638, 38554.487142100711935 ] } },
{ "type": "Feature", "properties": { "機場名": "美田南部-3945", "井戸径": "250", "井戸深": " 25.0 ", "種類": "自吸式", "吐出口径": "125", "出力": "5.5", "管理業者": "野田鑿泉", "管理者": "若菜友之" }, "geometry": { "type": "Point", "coordinates": [ -7995.321, 38228.597999999998137 ] } },
{ "type": "Feature", "properties": { "機場名": "美田南部-3907", "井戸径": "125", "井戸深": " 25.0 ", "種類": "自吸式", "吐出口径": "125", "出力": "5.5", "管理業者": "野田鑿泉", "管理者": "大出誠治" }, "geometry": { "type": "Point", "coordinates": [ -7870.94649999961257, 38460.090299999341369 ] } },
{ "type": "Feature", "properties": { "機場名": "美田南部-2762", "井戸径": "300", "井戸深": " 54.0 ", "種類": "水中", "吐出口径": "150", "出力": "11.0", "管理業者": "野田鑿泉", "管理者": "上野次雄" }, "geometry": { "type": "Point", "coordinates": [ -7764.442900000140071, 38185.070299999788404 ] } },
{ "type": "Feature", "properties": { "機場名": "美田南部-3944", "井戸径": "125", "井戸深": " 32.0 ", "種類": "自吸式", "吐出口径": "125", "出力": "5.5", "管理業者": "野田鑿泉", "管理者": "若菜友之" }, "geometry": { "type": "Point", "coordinates": [ -7928.012199999764562, 38169.758500000461936 ] } },
{ "type": "Feature", "properties": { "機場名": "美田南部-4977", "井戸径": "125", "井戸深": " 25.0 ", "種類": "自吸式", "吐出口径": "125", "出力": "5.5", "管理業者": "㈱小林鑿泉工業所", "管理者": "大出和芳" }, "geometry": { "type": "Point", "coordinates": [ -7596.151999999769032, 38355.884099999442697 ] } },
{ "type": "Feature", "properties": { "機場名": "美田南部-4744", "井戸径": "125", "井戸深": " 25.0 ", "種類": "自吸式", "吐出口径": "125", "出力": "5.5", "管理業者": "㈱小林鑿泉工業所", "管理者": "大出誠治" }, "geometry": { "type": "Point", "coordinates": [ -7302.300599999725819, 38237.334400000050664 ] } },
{ "type": "Feature", "properties": { "機場名": "美田南部-6368", "井戸径": "450", "井戸深": " 80.0 ", "種類": "水中", "吐出口径": "150", "出力": "15.0", "管理業者": "㈱小林鑿泉工業所", "管理者": "倉持典充" }, "geometry": { "type": "Point", "coordinates": [ -6964.752700000070035, 38116.057600000873208 ] } },
{ "type": "Feature", "properties": { "機場名": "美田南部-2588", "井戸径": "300", "井戸深": " 55.0 ", "種類": "水中", "吐出口径": "150", "出力": "11.0", "管理業者": "㈱小林鑿泉工業所", "管理者": "倉持信一" }, "geometry": { "type": "Point", "coordinates": [ -6768.839599999599159, 37867.25650000013411 ] } },
{ "type": "Feature", "properties": { "機場名": "美田南部-4418", "井戸径": "125", "井戸深": " 25.0 ", "種類": "自吸式", "吐出口径": "125", "出力": "5.5", "管理業者": "㈱小林鑿泉工業所", "管理者": "須藤益男" }, "geometry": { "type": "Point", "coordinates": [ -7424.69400000013411, 37880.203500000759959 ] } },
{ "type": "Feature", "properties": { "機場名": "美田南部-3905", "井戸径": "125", "井戸深": " 25.5 ", "種類": "水中", "吐出口径": "100", "出力": "7.5", "管理業者": "㈱小林鑿泉工業所", "管理者": "相川茂" }, "geometry": { "type": "Point", "coordinates": [ -7691.328999999910593, 37918.574899999424815 ] } },
{ "type": "Feature", "properties": { "機場名": "美田南部-5154", "井戸径": "300", "井戸深": " 50.0 ", "種類": "水中", "吐出口径": "150", "出力": "15.0", "管理業者": "野田鑿泉", "管理者": "若菜友之" }, "geometry": { "type": "Point", "coordinates": [ -8068.225300000049174, 37876.55320000089705 ] } },
{ "type": "Feature", "properties": { "機場名": "美田南部-5317", "井戸径": "", "井戸深": " - ", "種類": "自吸式", "吐出口径": "", "出力": "0.0", "管理業者": "野田鑿泉", "管理者": "田名網基晴" }, "geometry": { "type": "Point", "coordinates": [ -7983.99930000025779, 37444.848200000822544 ] } },
{ "type": "Feature", "properties": { "機場名": "美田南部-3904", "井戸径": "450", "井戸深": " 29.0 ", "種類": "水中", "吐出口径": "125", "出力": "11.0", "管理業者": "㈱トチナン", "管理者": "須賀隆" }, "geometry": { "type": "Point", "coordinates": [ -7852.641200000420213, 37383.501199999824166 ] } },
{ "type": "Feature", "properties": { "機場名": "美田南部-3578", "井戸径": "125", "井戸深": " 25.0 ", "種類": "自吸式", "吐出口径": "125", "出力": "5.5", "管理業者": "㈱小林鑿泉工業所", "管理者": "相川昭一" }, "geometry": { "type": "Point", "coordinates": [ -7730.999400000087917, 37385.433800000697374 ] } },
{ "type": "Feature", "properties": { "機場名": "小野藤-28", "井戸径": "250", "井戸深": "65", "種類": "水中", "吐出口径": "125", "出力": "11", "管理業者": "㈱トチナン", "管理者": "川尻久夫" }, "geometry": { "type": "Point", "coordinates": [ -8064.669499999843538, 32757.85050000064075 ] } },
{ "type": "Feature", "properties": { "機場名": "小野藤-156", "井戸径": "400", "井戸深": "40", "種類": "水中", "吐出口径": "150", "出力": "15", "管理業者": "㈱トチナン", "管理者": "関口昌男" }, "geometry": { "type": "Point", "coordinates": [ -10987.677881333811456, 27711.034344158964814 ] } },
{ "type": "Feature", "properties": { "機場名": "小野藤-32", "井戸径": "150", "井戸深": "8", "種類": "自吸式", "吐出口径": "100", "出力": "3.7", "管理業者": "山さく建工㈱", "管理者": "金沢正喜" }, "geometry": { "type": "Point", "coordinates": [ -8593.382799999788404, 32853.752000000327826 ] } },
{ "type": "Feature", "properties": { "機場名": "小野藤-31", "井戸径": "200", "井戸深": "10", "種類": "水中", "吐出口径": "125", "出力": "15", "管理業者": "㈱トチナン", "管理者": "金沢正喜" }, "geometry": { "type": "Point", "coordinates": [ -8601.268000000156462, 32876.512000000104308 ] } },
{ "type": "Feature", "properties": { "機場名": "小野藤-103", "井戸径": "", "井戸深": "", "種類": "水中汚水", "吐出口径": "100", "出力": "3.7", "管理業者": "山さく建工㈱", "管理者": "渡辺照明" }, "geometry": { "type": "Point", "coordinates": [ -7117.009888925144878, 35754.161599469007342 ] } },
{ "type": "Feature", "properties": { "機場名": "小野藤-102", "井戸径": "250", "井戸深": "67", "種類": "水中", "吐出口径": "125", "出力": "15.0", "管理業者": "㈱トチナン", "管理者": "池田　浩" }, "geometry": { "type": "Point", "coordinates": [ -8204.478699999861419, 30063.11119999922812 ] } },
{ "type": "Feature", "properties": { "機場名": "小野藤-101", "井戸径": "250", "井戸深": "66", "種類": "水中", "吐出口径": "80", "出力": "3.7", "管理業者": "㈱トチナン", "管理者": "大橋勝昭" }, "geometry": { "type": "Point", "coordinates": [ -7863.903512617706838, 30119.937971937302791 ] } },
{ "type": "Feature", "properties": { "機場名": "小野藤-100", "井戸径": "100", "井戸深": "7", "種類": "自吸式", "吐出口径": "100", "出力": "3.7", "管理業者": "㈱トチナン", "管理者": "大島茂男" }, "geometry": { "type": "Point", "coordinates": [ -8251.739799999631941, 30511.893300000578165 ] } },
{ "type": "Feature", "properties": { "機場名": "小野藤-51", "井戸径": "125", "井戸深": "18", "種類": "自吸式", "吐出口径": "100", "出力": "3.7", "管理業者": "山さく建工㈱", "管理者": "青木安次" }, "geometry": { "type": "Point", "coordinates": [ -8281.878999999724329, 30988.246999999508262 ] } },
{ "type": "Feature", "properties": { "機場名": "小野藤-78", "井戸径": "100", "井戸深": "16", "種類": "自吸式", "吐出口径": "100", "出力": "3.7", "管理業者": "㈲タナカサクセン", "管理者": "稲葉青史" }, "geometry": { "type": "Point", "coordinates": [ -10777.144117313773677, 29654.644499620953866 ] } },
{ "type": "Feature", "properties": { "機場名": "小野藤-77", "井戸径": "125", "井戸深": "8", "種類": "自吸式", "吐出口径": "100", "出力": "3.7", "管理業者": "㈲タナカサクセン", "管理者": "谷内照子" }, "geometry": { "type": "Point", "coordinates": [ -10537.321700000204146, 29376.100899999961257 ] } },
{ "type": "Feature", "properties": { "機場名": "小野藤-76", "井戸径": "350", "井戸深": "60", "種類": "水中", "吐出口径": "150", "出力": "15", "管理業者": "㈲タナカサクセン", "管理者": "川俣惠司" }, "geometry": { "type": "Point", "coordinates": [ -10171.246727959221971, 29355.219473368553736 ] } },
{ "type": "Feature", "properties": { "機場名": "小野藤-82", "井戸径": "350", "井戸深": "109", "種類": "水中", "吐出口径": "150", "出力": "18.5", "管理業者": "㈲タナカサクセン", "管理者": "石川正喜" }, "geometry": { "type": "Point", "coordinates": [ -10745.642199999652803, 29053.144799999892712 ] } },
{ "type": "Feature", "properties": { "機場名": "小野藤-81", "井戸径": "100", "井戸深": "8", "種類": "自吸式", "吐出口径": "100", "出力": "3.7", "管理業者": "㈲タナカサクセン", "管理者": "石川正喜" }, "geometry": { "type": "Point", "coordinates": [ -10586.114599999971688, 29014.889699999243021 ] } },
{ "type": "Feature", "properties": { "機場名": "小野藤-79", "井戸径": "300", "井戸深": "110", "種類": "水中", "吐出口径": "125", "出力": "18.5", "管理業者": "㈲タナカサクセン", "管理者": "稲葉青史" }, "geometry": { "type": "Point", "coordinates": [ -11090.949900000356138, 29501.287599999457598 ] } },
{ "type": "Feature", "properties": { "機場名": "小野藤-80", "井戸径": "200", "井戸深": "60", "種類": "水中", "吐出口径": "100", "出力": "11.0", "管理業者": "㈲タナカサクセン", "管理者": "須藤　栄" }, "geometry": { "type": "Point", "coordinates": [ -11276.477099999785423, 29282.214099999517202 ] } },
{ "type": "Feature", "properties": { "機場名": "小野藤-83", "井戸径": "350", "井戸深": "134", "種類": "水中", "吐出口径": "150", "出力": "18.5", "管理業者": "㈱小林鑿泉工業所", "管理者": "尾島康夫" }, "geometry": { "type": "Point", "coordinates": [ -11022.418399999849498, 28817.10869999974966 ] } },
{ "type": "Feature", "properties": { "機場名": "小野藤-84", "井戸径": "150", "井戸深": "17", "種類": "自吸式", "吐出口径": "125", "出力": "5.5", "管理業者": "㈲タナカサクセン", "管理者": "片柳　勇" }, "geometry": { "type": "Point", "coordinates": [ -10858.408099999651313, 28619.987400000914931 ] } },
{ "type": "Feature", "properties": { "機場名": "小野藤-85", "井戸径": "100", "井戸深": "12", "種類": "自吸式", "吐出口径": "100", "出力": "3.7", "管理業者": "㈲タナカサクセン", "管理者": "片柳　勇" }, "geometry": { "type": "Point", "coordinates": [ -11095.490799999795854, 28423.314699999988079 ] } },
{ "type": "Feature", "properties": { "機場名": "小野藤-130", "井戸径": "", "井戸深": "", "種類": "水中汚水", "吐出口径": "100", "出力": "3.7", "管理業者": "㈲タナカサクセン", "管理者": "海老沼正雄" }, "geometry": { "type": "Point", "coordinates": [ -10597.041000000201166, 28325.64750000089407 ] } },
{ "type": "Feature", "properties": { "機場名": "小野藤-87", "井戸径": "400", "井戸深": "40", "種類": "水中", "吐出口径": "150", "出力": "15.0", "管理業者": "㈲タナカサクセン", "管理者": "海老沼　昇" }, "geometry": { "type": "Point", "coordinates": [ -11712.655399999581277, 28330.497400000691414 ] } },
{ "type": "Feature", "properties": { "機場名": "小野藤-86", "井戸径": "300", "井戸深": "70", "種類": "水中", "吐出口径": "150", "出力": "18.5", "管理業者": "㈲タナカサクセン", "管理者": "小林芳一" }, "geometry": { "type": "Point", "coordinates": [ -11874.707700000144541, 28464.682800000533462 ] } },
{ "type": "Feature", "properties": { "機場名": "小野藤-116", "井戸径": "250", "井戸深": "16", "種類": "自吸式", "吐出口径": "100", "出力": "5.5", "管理業者": "㈱トチナン", "管理者": "大竹浩明" }, "geometry": { "type": "Point", "coordinates": [ -9411.060300000011921, 28882.794600000604987 ] } },
{ "type": "Feature", "properties": { "機場名": "小野藤-119", "井戸径": "300", "井戸深": "108", "種類": "水中", "吐出口径": "150", "出力": "18.5", "管理業者": "㈱トチナン", "管理者": "橋本和幸" }, "geometry": { "type": "Point", "coordinates": [ -9080.384399999864399, 28309.642000000923872 ] } },
{ "type": "Feature", "properties": { "機場名": "小野藤-118", "井戸径": "250", "井戸深": "40", "種類": "水中", "吐出口径": "100", "出力": "7.5", "管理業者": "㈱トチナン", "管理者": "福田喜久雄" }, "geometry": { "type": "Point", "coordinates": [ -8771.786899999715388, 28431.075099999085069 ] } },
{ "type": "Feature", "properties": { "機場名": "小野藤-117", "井戸径": "300", "井戸深": "118", "種類": "水中", "吐出口径": "150", "出力": "18.5", "管理業者": "㈱トチナン", "管理者": "福田喜久雄" }, "geometry": { "type": "Point", "coordinates": [ -8680.316599999554455, 28730.522099999710917 ] } },
{ "type": "Feature", "properties": { "機場名": "小野藤-107", "井戸径": "300", "井戸深": "41", "種類": "水中", "吐出口径": "125", "出力": "11", "管理業者": "㈱トチナン", "管理者": "堤　一夫" }, "geometry": { "type": "Point", "coordinates": [ -8704.897282004738372, 29340.964238422689959 ] } },
{ "type": "Feature", "properties": { "機場名": "小野藤-108", "井戸径": "300", "井戸深": "40", "種類": "水中", "吐出口径": "125", "出力": "11", "管理業者": "㈱トチナン", "管理者": "小島一則" }, "geometry": { "type": "Point", "coordinates": [ -8348.555463805638283, 29202.343469747258496 ] } },
{ "type": "Feature", "properties": { "機場名": "小野藤-110", "井戸径": "", "井戸深": "", "種類": "水中汚水", "吐出口径": "100", "出力": "3.7", "管理業者": "㈱トチナン", "管理者": "田中米男" }, "geometry": { "type": "Point", "coordinates": [ -8880.939799999818206, 29560.70920000039041 ] } },
{ "type": "Feature", "properties": { "機場名": "小野藤-111", "井戸径": "", "井戸深": "", "種類": "水中汚水", "吐出口径": "100", "出力": "3.7", "管理業者": "㈱トチナン", "管理者": "青木　茂" }, "geometry": { "type": "Point", "coordinates": [ -9217.97759999986738, 29455.690400000661612 ] } },
{ "type": "Feature", "properties": { "機場名": "小野藤-113", "井戸径": "300", "井戸深": "60", "種類": "水中", "吐出口径": "150", "出力": "18.5", "管理業者": "㈱トチナン", "管理者": "青木　茂" }, "geometry": { "type": "Point", "coordinates": [ -9257.965200000442564, 29253.787599999457598 ] } },
{ "type": "Feature", "properties": { "機場名": "小野藤-112", "井戸径": "75", "井戸深": "12", "種類": "自吸式", "吐出口径": "65", "出力": "1.5", "管理業者": "㈱トチナン", "管理者": "青木　茂" }, "geometry": { "type": "Point", "coordinates": [ -9215.039415862345777, 29148.577149815959274 ] } },
{ "type": "Feature", "properties": { "機場名": "小野藤-106", "井戸径": "350", "井戸深": "40", "種類": "水中", "吐出口径": "150", "出力": "15", "管理業者": "㈱トチナン", "管理者": "舘野二郎" }, "geometry": { "type": "Point", "coordinates": [ -8399.084699999541044, 29739.080299999564886 ] } },
{ "type": "Feature", "properties": { "機場名": "小野藤-105", "井戸径": "100", "井戸深": "15", "種類": "自吸式", "吐出口径": "100", "出力": "3.7", "管理業者": "㈱トチナン", "管理者": "舘野二郎" }, "geometry": { "type": "Point", "coordinates": [ -8085.530399999581277, 29746.982499999925494 ] } },
{ "type": "Feature", "properties": { "機場名": "小野藤-104", "井戸径": "100", "井戸深": "12", "種類": "自吸式", "吐出口径": "100", "出力": "3.7", "管理業者": "㈱トチナン", "管理者": "青木豊治" }, "geometry": { "type": "Point", "coordinates": [ -7845.376699999906123, 29830.065199999138713 ] } },
{ "type": "Feature", "properties": { "機場名": "小野藤-88", "井戸径": "400", "井戸深": "40", "種類": "水中", "吐出口径": "150", "出力": "15.0", "管理業者": "㈲タナカサクセン", "管理者": "橋本　武" }, "geometry": { "type": "Point", "coordinates": [ -11925.135328472328183, 27507.545747241390927 ] } },
{ "type": "Feature", "properties": { "機場名": "小野藤-134", "井戸径": "400", "井戸深": "40", "種類": "水中", "吐出口径": "150", "出力": "15", "管理業者": "㈱トチナン", "管理者": "渡辺眞男" }, "geometry": { "type": "Point", "coordinates": [ -11375.405299999751151, 27195.830900000408292 ] } },
{ "type": "Feature", "properties": { "機場名": "小野藤-90", "井戸径": "", "井戸深": "", "種類": "水中汚水", "吐出口径": "150", "出力": "5.5", "管理業者": "㈲タナカサクセン", "管理者": "尾島康夫" }, "geometry": { "type": "Point", "coordinates": [ -11539.800499999895692, 27579.728800000622869 ] } },
{ "type": "Feature", "properties": { "機場名": "小野藤-133", "井戸径": "200", "井戸深": "40", "種類": "水中", "吐出口径": "80", "出力": "5.5", "管理業者": "㈱小林鑿泉工業所", "管理者": "秋間美輝" }, "geometry": { "type": "Point", "coordinates": [ -11239.406299999915063, 27620.343100000172853 ] } },
{ "type": "Feature", "properties": { "機場名": "小野藤-89", "井戸径": "300", "井戸深": "70", "種類": "水中", "吐出口径": "150", "出力": "15.0", "管理業者": "㈱小林鑿泉工業所", "管理者": "山野井　洋" }, "geometry": { "type": "Point", "coordinates": [ -11277.49280000012368, 27962.446900000795722 ] } },
{ "type": "Feature", "properties": { "機場名": "小野藤-132", "井戸径": "300", "井戸深": "66", "種類": "水中", "吐出口径": "150", "出力": "15", "管理業者": "㈱トチナン", "管理者": "池貝孝雄" }, "geometry": { "type": "Point", "coordinates": [ -10962.966, 27722.215 ] } },
{ "type": "Feature", "properties": { "機場名": "小野藤-99", "井戸径": "300", "井戸深": "100", "種類": "水中", "吐出口径": "150", "出力": "18.5", "管理業者": "㈱トチナン", "管理者": "松本正明" }, "geometry": { "type": "Point", "coordinates": [ -7838.891900000162423, 30666.63539999909699 ] } },
{ "type": "Feature", "properties": { "機場名": "美田南部-5201", "井戸径": "300", "井戸深": " 50.0 ", "種類": "水中", "吐出口径": "150", "出力": "11.0", "管理業者": "野田鑿泉", "管理者": "速見勝夫" }, "geometry": { "type": "Point", "coordinates": [ -7445.46860000025481, 36814.286299999803305 ] } },
{ "type": "Feature", "properties": { "機場名": "美田南部-6169", "井戸径": "250", "井戸深": " 32.0 ", "種類": "水中", "吐出口径": "100", "出力": "7.5", "管理業者": "㈱小林鑿泉工業所", "管理者": "大出東寿" }, "geometry": { "type": "Point", "coordinates": [ -7560.583800000138581, 36261.691099999472499 ] } },
{ "type": "Feature", "properties": { "機場名": "美田南部-5896", "井戸径": "300", "井戸深": " 86.0 ", "種類": "水中", "吐出口径": "150", "出力": "15.0", "管理業者": "㈱トチナン", "管理者": "岸政男" }, "geometry": { "type": "Point", "coordinates": [ -6539.543200000189245, 36034.748099999502301 ] } },
{ "type": "Feature", "properties": { "機場名": "美田南部-2589", "井戸径": "250", "井戸深": " 30.0 ", "種類": "水中", "吐出口径": "100", "出力": "7.5", "管理業者": "㈱小林鑿泉工業所", "管理者": "松本雄一" }, "geometry": { "type": "Point", "coordinates": [ -6300.231999999843538, 36017.076199999079108 ] } },
{ "type": "Feature", "properties": { "機場名": "美田南部-3230", "井戸径": "300", "井戸深": " 80.0 ", "種類": "水中", "吐出口径": "150", "出力": "15.0", "管理業者": "㈱小林鑿泉工業所", "管理者": "山野井英明" }, "geometry": { "type": "Point", "coordinates": [ -6425.416699999943376, 35759.148299999535084 ] } },
{ "type": "Feature", "properties": { "機場名": "美田南部-3915", "井戸径": "250", "井戸深": " 30.0 ", "種類": "水中", "吐出口径": "100", "出力": "7.5", "管理業者": "㈱小林鑿泉工業所", "管理者": "山野井英明" }, "geometry": { "type": "Point", "coordinates": [ -6179.663800000213087, 35743.709599999710917 ] } },
{ "type": "Feature", "properties": { "機場名": "小野藤-96", "井戸径": "100", "井戸深": "18", "種類": "自吸式", "吐出口径": "100", "出力": "3.7", "管理業者": "山さく建工㈱", "管理者": "古河　勲" }, "geometry": { "type": "Point", "coordinates": [ -7487.127700000070035, 31789.508099999278784 ] } },
{ "type": "Feature", "properties": { "機場名": "小野藤-95", "井戸径": "100", "井戸深": "18", "種類": "自吸式", "吐出口径": "100", "出力": "3.7", "管理業者": "山さく建工㈱", "管理者": "古河利守" }, "geometry": { "type": "Point", "coordinates": [ -7700.459099999628961, 31916.817399999126792 ] } },
{ "type": "Feature", "properties": { "機場名": "小野藤-38", "井戸径": "100", "井戸深": "15", "種類": "水中", "吐出口径": "100", "出力": "3.7", "管理業者": "山さく建工㈱", "管理者": "古河　隆" }, "geometry": { "type": "Point", "coordinates": [ -7818.611800000071526, 31988.764699999243021 ] } },
{ "type": "Feature", "properties": { "機場名": "小野藤-39", "井戸径": "125", "井戸深": "10", "種類": "自吸式", "吐出口径": "100", "出力": "3.7", "管理業者": "山さく建工㈱", "管理者": "古河　隆" }, "geometry": { "type": "Point", "coordinates": [ -7943.905199999921024, 32026.566099999472499 ] } },
{ "type": "Feature", "properties": { "機場名": "小野藤-37", "井戸径": "125", "井戸深": "20", "種類": "自吸式", "吐出口径": "125", "出力": "5.5", "管理業者": "㈱小林鑿泉工業所", "管理者": "古川和義" }, "geometry": { "type": "Point", "coordinates": [ -7852.709499999880791, 32260.83500000089407 ] } },
{ "type": "Feature", "properties": { "機場名": "小野藤-147", "井戸径": "125", "井戸深": "7", "種類": "自吸式", "吐出口径": "100", "出力": "7.5", "管理業者": "㈱小林鑿泉工業所", "管理者": "金沢正喜" }, "geometry": { "type": "Point", "coordinates": [ -7834.562300000339746, 32313.642500000074506 ] } },
{ "type": "Feature", "properties": { "機場名": "小野藤-148", "井戸径": "300", "井戸深": "55", "種類": "水中", "吐出口径": "100", "出力": "7.5", "管理業者": "山さく建工㈱", "管理者": "波戸場長一" }, "geometry": { "type": "Point", "coordinates": [ -7355.216500000096858, 32048.271099999547005 ] } },
{ "type": "Feature", "properties": { "機場名": "小野藤-92", "井戸径": "300", "井戸深": "100", "種類": "水中", "吐出口径": "150", "出力": "18.5", "管理業者": "㈱トチナン", "管理者": "黒須幸夫" }, "geometry": { "type": "Point", "coordinates": [ -6991.153800000436604, 32294.869100000709295 ] } },
{ "type": "Feature", "properties": { "機場名": "小野藤-91", "井戸径": "100", "井戸深": "12", "種類": "自吸式", "吐出口径": "100", "出力": "3.7", "管理業者": "㈱トチナン", "管理者": "黒須幸夫" }, "geometry": { "type": "Point", "coordinates": [ -6871.228699999861419, 32277.397700000554323 ] } },
{ "type": "Feature", "properties": { "機場名": "小野藤-94", "井戸径": "400", "井戸深": "58", "種類": "水中", "吐出口径": "150", "出力": "22.0", "管理業者": "山さく建工㈱", "管理者": "古河良夫" }, "geometry": { "type": "Point", "coordinates": [ -7282.458599999547005, 32431.44620000012219 ] } },
{ "type": "Feature", "properties": { "機場名": "小野藤-30", "井戸径": "250", "井戸深": "35", "種類": "水中", "吐出口径": "100", "出力": "5.5", "管理業者": "山さく建工㈱", "管理者": "川尻久夫" }, "geometry": { "type": "Point", "coordinates": [ -7546.138000000268221, 32484.432399999350309 ] } },
{ "type": "Feature", "properties": { "機場名": "小野藤-36", "井戸径": "100", "井戸深": "15", "種類": "自吸式", "吐出口径": "100", "出力": "3.7", "管理業者": "山さく建工㈱", "管理者": "松本昭二" }, "geometry": { "type": "Point", "coordinates": [ -8082.143500000238419, 32372.514399999752641 ] } },
{ "type": "Feature", "properties": { "機場名": "小野藤-35", "井戸径": "300", "井戸深": "107", "種類": "水中", "吐出口径": "150", "出力": "18.5", "管理業者": "㈱小林鑿泉工業所", "管理者": "綾部欽一" }, "geometry": { "type": "Point", "coordinates": [ -8356.123499999754131, 32410.920299999415874 ] } },
{ "type": "Feature", "properties": { "機場名": "小野藤-34", "井戸径": "125", "井戸深": "20", "種類": "自吸式", "吐出口径": "100", "出力": "3.7", "管理業者": "㈱小林鑿泉工業所", "管理者": "松本昭二" }, "geometry": { "type": "Point", "coordinates": [ -8474.428600000217557, 32477.971599999815226 ] } },
{ "type": "Feature", "properties": { "機場名": "小野藤-40", "井戸径": "125", "井戸深": "15", "種類": "自吸式", "吐出口径": "100", "出力": "3.7", "管理業者": "山さく建工㈱", "管理者": "綾部欽一" }, "geometry": { "type": "Point", "coordinates": [ -8192.324900000356138, 32165.786599999293685 ] } },
{ "type": "Feature", "properties": { "機場名": "小野藤-42", "井戸径": "100", "井戸深": "15", "種類": "自吸式", "吐出口径": "100", "出力": "3.7", "管理業者": "㈱小林鑿泉工業所", "管理者": "稲葉哲夫" }, "geometry": { "type": "Point", "coordinates": [ -8317.507799999788404, 31961.39159999974072 ] } },
{ "type": "Feature", "properties": { "機場名": "小野藤-41", "井戸径": "300", "井戸深": "60", "種類": "水中", "吐出口径": "125", "出力": "15", "管理業者": "㈱小林鑿泉工業所", "管理者": "中島浩一" }, "geometry": { "type": "Point", "coordinates": [ -8083.781700000166893, 31834.046000000089407 ] } },
{ "type": "Feature", "properties": { "機場名": "小野藤-44", "井戸径": "250", "井戸深": "110", "種類": "水中", "吐出口径": "125", "出力": "18.5", "管理業者": "㈱小林鑿泉工業所", "管理者": "海老沼　操" }, "geometry": { "type": "Point", "coordinates": [ -8067.538399999961257, 31568.208599999547005 ] } },
{ "type": "Feature", "properties": { "機場名": "小野藤-50", "井戸径": "300", "井戸深": "40", "種類": "水中", "吐出口径": "150", "出力": "15", "管理業者": "㈱トチナン", "管理者": "五十嵐芳夫" }, "geometry": { "type": "Point", "coordinates": [ -8301.21929999999702, 31478.468599999323487 ] } },
{ "type": "Feature", "properties": { "機場名": "小野藤-45", "井戸径": "125", "井戸深": "16", "種類": "自吸式", "吐出口径": "125", "出力": "5.5", "管理業者": "㈱小林鑿泉工業所", "管理者": "菅沼正治" }, "geometry": { "type": "Point", "coordinates": [ -8413.298200000077486, 31780.53179999999702 ] } },
{ "type": "Feature", "properties": { "機場名": "小野藤-33", "井戸径": "125", "井戸深": "12", "種類": "自吸式", "吐出口径": "100", "出力": "3.7", "管理業者": "山さく建工㈱", "管理者": "中島利幸" }, "geometry": { "type": "Point", "coordinates": [ -8661.790400000289083, 32496.44649999961257 ] } },
{ "type": "Feature", "properties": { "機場名": "小野藤-43", "井戸径": "250", "井戸深": "108", "種類": "水中", "吐出口径": "125", "出力": "18.5", "管理業者": "㈱小林鑿泉工業所", "管理者": "五十嵐芳夫" }, "geometry": { "type": "Point", "coordinates": [ -8533.031000000424683, 32090.294600000604987 ] } },
{ "type": "Feature", "properties": { "機場名": "小野藤-46", "井戸径": "125", "井戸深": "16", "種類": "自吸式", "吐出口径": "125", "出力": "5.5", "管理業者": "㈱小林鑿泉工業所", "管理者": "菅沼正治" }, "geometry": { "type": "Point", "coordinates": [ -8767.232699999585748, 31993.651900000870228 ] } },
{ "type": "Feature", "properties": { "機場名": "小野藤-48", "井戸径": "125", "井戸深": "16", "種類": "自吸式", "吐出口径": "125", "出力": "5.5", "管理業者": "㈱小林鑿泉工業所", "管理者": "飯野利也" }, "geometry": { "type": "Point", "coordinates": [ -8855.564699999988079, 31820.014000000432134 ] } },
{ "type": "Feature", "properties": { "機場名": "小野藤-49", "井戸径": "300", "井戸深": "110", "種類": "水中", "吐出口径": "150", "出力": "22", "管理業者": "㈱小林鑿泉工業所", "管理者": "青木正義" }, "geometry": { "type": "Point", "coordinates": [ -8628.433699999935925, 31682.094699999317527 ] } },
{ "type": "Feature", "properties": { "機場名": "小野藤-47", "井戸径": "300", "井戸深": "60", "種類": "水中", "吐出口径": "125", "出力": "11", "管理業者": "㈱小林鑿泉工業所", "管理者": "海老沼　操" }, "geometry": { "type": "Point", "coordinates": [ -9125.339499999769032, 31721.396600000560284 ] } },
{ "type": "Feature", "properties": { "機場名": "小野藤-55", "井戸径": "100", "井戸深": "10", "種類": "自吸式", "吐出口径": "100", "出力": "3.7", "管理業者": "㈱小林鑿泉工業所", "管理者": "海老沼　操" }, "geometry": { "type": "Point", "coordinates": [ -9263.752700000070035, 31341.373099999502301 ] } },
{ "type": "Feature", "properties": { "機場名": "小野藤-56", "井戸径": "100", "井戸深": "8", "種類": "自吸式", "吐出口径": "100", "出力": "3.7", "管理業者": "㈱小林鑿泉工業所", "管理者": "海老沼隆之" }, "geometry": { "type": "Point", "coordinates": [ -9528.065499999560416, 31258.365000000223517 ] } },
{ "type": "Feature", "properties": { "機場名": "小野藤-57", "井戸径": "250", "井戸深": "52", "種類": "水中", "吐出口径": "100", "出力": "5.5", "管理業者": "㈱小林鑿泉工業所", "管理者": "白井昭雄" }, "geometry": { "type": "Point", "coordinates": [ -9075.513411675781754, 30967.659754659063765 ] } },
{ "type": "Feature", "properties": { "機場名": "小野藤-58", "井戸径": "300", "井戸深": "100", "種類": "水中", "吐出口径": "100", "出力": "11", "管理業者": "㈱小林鑿泉工業所", "管理者": "塚田政己" }, "geometry": { "type": "Point", "coordinates": [ -8949.175300000235438, 30892.550100000575185 ] } },
{ "type": "Feature", "properties": { "機場名": "小野藤-59", "井戸径": "", "井戸深": "", "種類": "水中汚水", "吐出口径": "100", "出力": "5.5", "管理業者": "㈱トチナン", "管理者": "渡辺正雄" }, "geometry": { "type": "Point", "coordinates": [ -8840.071000000461936, 30824.899399999529123 ] } },
{ "type": "Feature", "properties": { "機場名": "小野藤-54", "井戸径": "100", "井戸深": "16", "種類": "自吸式", "吐出口径": "100", "出力": "3.7", "管理業者": "山さく建工㈱", "管理者": "加藤　昇" }, "geometry": { "type": "Point", "coordinates": [ -8911.873746527900948, 31228.613375301447377 ] } },
{ "type": "Feature", "properties": { "機場名": "小野藤-53", "井戸径": "100", "井戸深": "16", "種類": "自吸式", "吐出口径": "100", "出力": "3.7", "管理業者": "山さく建工㈱", "管理者": "五十嵐利治" }, "geometry": { "type": "Point", "coordinates": [ -8737.225999999791384, 31269.880000000819564 ] } },
{ "type": "Feature", "properties": { "機場名": "小野藤-52", "井戸径": "100", "井戸深": "16", "種類": "自吸式", "吐出口径": "100", "出力": "3.7", "管理業者": "山さく建工㈱", "管理者": "海老沼隆之" }, "geometry": { "type": "Point", "coordinates": [ -8508.605800000019372, 31092.114800000563264 ] } },
{ "type": "Feature", "properties": { "機場名": "小野藤-60", "井戸径": "100", "井戸深": "8", "種類": "自吸式", "吐出口径": "100", "出力": "3.7", "管理業者": "㈱小林鑿泉工業所", "管理者": "青木喜久" }, "geometry": { "type": "Point", "coordinates": [ -8701.525399999693036, 30338.099600000306964 ] } },
{ "type": "Feature", "properties": { "機場名": "小野藤-109", "井戸径": "", "井戸深": "", "種類": "水中汚水", "吐出口径": "300", "出力": "18.5", "管理業者": "㈱トチナン", "管理者": "田中米男" }, "geometry": { "type": "Point", "coordinates": [ -8705.66469999961555, 30149.188400000333786 ] } },
{ "type": "Feature", "properties": { "機場名": "小野藤-61", "井戸径": "100", "井戸深": "8", "種類": "自吸式", "吐出口径": "100", "出力": "3.7", "管理業者": "㈱小林鑿泉工業所", "管理者": "渡辺正雄" }, "geometry": { "type": "Point", "coordinates": [ -8910.677600000053644, 30459.163899999111891 ] } },
{ "type": "Feature", "properties": { "機場名": "小野藤-62", "井戸径": "100", "井戸深": "10", "種類": "自吸式", "吐出口径": "100", "出力": "3.7", "管理業者": "㈱小林鑿泉工業所", "管理者": "渡辺正雄" }, "geometry": { "type": "Point", "coordinates": [ -9136.373300000093877, 30585.907299999147654 ] } },
{ "type": "Feature", "properties": { "機場名": "小野藤-63", "井戸径": "125", "井戸深": "15", "種類": "自吸式", "吐出口径": "100", "出力": "3.7", "管理業者": "㈱小林鑿泉工業所", "管理者": "青木幸雄" }, "geometry": { "type": "Point", "coordinates": [ -9272.429999999701977, 30541.669199999421835 ] } },
{ "type": "Feature", "properties": { "機場名": "小野藤-64", "井戸径": "300", "井戸深": "105", "種類": "水中", "吐出口径": "150", "出力": "22", "管理業者": "㈱小林鑿泉工業所", "管理者": "青木喜久" }, "geometry": { "type": "Point", "coordinates": [ -9527.634200000204146, 30830.35950000025332 ] } },
{ "type": "Feature", "properties": { "機場名": "小野藤-65", "井戸径": "400", "井戸深": "57", "種類": "水中", "吐出口径": "125", "出力": "11", "管理業者": "㈱小林鑿泉工業所", "管理者": "渡辺正雄" }, "geometry": { "type": "Point", "coordinates": [ -9695.390300000086427, 30792.78319999948144 ] } },
{ "type": "Feature", "properties": { "機場名": "小野藤-66", "井戸径": "100", "井戸深": "12", "種類": "自吸式", "吐出口径": "100", "出力": "3.7", "管理業者": "㈱小林鑿泉工業所", "管理者": "渡辺正雄" }, "geometry": { "type": "Point", "coordinates": [ -9889.768600000068545, 30393.732599999755621 ] } },
{ "type": "Feature", "properties": { "機場名": "小野藤-67", "井戸径": "80", "井戸深": "7", "種類": "自吸式", "吐出口径": "80", "出力": "2.2", "管理業者": "㈱小林鑿泉工業所", "管理者": "渡辺正雄" }, "geometry": { "type": "Point", "coordinates": [ -9637.460400000214577, 30336.453600000590086 ] } },
{ "type": "Feature", "properties": { "機場名": "小野藤-68", "井戸径": "300", "井戸深": "110", "種類": "水中", "吐出口径": "150", "出力": "15", "管理業者": "㈱小林鑿泉工業所", "管理者": "篠原正巳" }, "geometry": { "type": "Point", "coordinates": [ -9468.734863467228934, 30316.538708377836883 ] } },
{ "type": "Feature", "properties": { "機場名": "小野藤-149", "井戸径": "250", "井戸深": "54", "種類": "水中", "吐出口径": "100", "出力": "5.5", "管理業者": "㈱トチナン", "管理者": "菊地正義" }, "geometry": { "type": "Point", "coordinates": [ -9173.082700000144541, 30143.349600000306964 ] } },
{ "type": "Feature", "properties": { "機場名": "小野藤-127", "井戸径": "250", "井戸深": "40", "種類": "水中", "吐出口径": "100", "出力": "7.5", "管理業者": "㈱トチナン", "管理者": "小林　明" }, "geometry": { "type": "Point", "coordinates": [ -9781.153099999763072, 28470.46309999935329 ] } },
{ "type": "Feature", "properties": { "機場名": "小野藤-115", "井戸径": "350", "井戸深": "60", "種類": "水中", "吐出口径": "150", "出力": "15", "管理業者": "㈱トチナン", "管理者": "青木　茂" }, "geometry": { "type": "Point", "coordinates": [ -9688.318300000391901, 28762.049000000581145 ] } },
{ "type": "Feature", "properties": { "機場名": "小野藤-126-1", "井戸径": "", "井戸深": "", "種類": "水中汚水", "吐出口径": "300", "出力": "22", "管理業者": "㈱トチナン", "管理者": "海老沼正雄" }, "geometry": { "type": "Point", "coordinates": [ -10021.7853690210286, 28856.084247948358097 ] } },
{ "type": "Feature", "properties": { "機場名": "小野藤-151", "井戸径": "150", "井戸深": "15", "種類": "自吸式", "吐出口径": "100", "出力": "3.7", "管理業者": "㈲タナカサクセン", "管理者": "稲葉青史" }, "geometry": { "type": "Point", "coordinates": [ -10218.072300000116229, 29008.18889999948442 ] } },
{ "type": "Feature", "properties": { "機場名": "小野藤-75", "井戸径": "150", "井戸深": "15", "種類": "自吸式", "吐出口径": "100", "出力": "3.7", "管理業者": "㈲タナカサクセン", "管理者": "田中　潔" }, "geometry": { "type": "Point", "coordinates": [ -9928.442200000397861, 29192.786000000312924 ] } },
{ "type": "Feature", "properties": { "機場名": "小野藤-114", "井戸径": "", "井戸深": "", "種類": "水中汚水", "吐出口径": "150", "出力": "5.5", "管理業者": "㈱トチナン", "管理者": "田中米男" }, "geometry": { "type": "Point", "coordinates": [ -9701.305658496161413, 29239.472173002643103 ] } },
{ "type": "Feature", "properties": { "機場名": "小野藤-71", "井戸径": "300", "井戸深": "107", "種類": "水中", "吐出口径": "150", "出力": "15", "管理業者": "㈱小林鑿泉工業所", "管理者": "田中　潔" }, "geometry": { "type": "Point", "coordinates": [ -9838.530500000342727, 29610.121400000527501 ] } },
{ "type": "Feature", "properties": { "機場名": "小野藤-72", "井戸径": "100", "井戸深": "12", "種類": "自吸式", "吐出口径": "100", "出力": "3.7", "管理業者": "㈲タナカサクセン", "管理者": "田中勝己" }, "geometry": { "type": "Point", "coordinates": [ -10034.644000000320375, 29468.6081000007689 ] } },
{ "type": "Feature", "properties": { "機場名": "小野藤-70", "井戸径": "300", "井戸深": "60", "種類": "水中", "吐出口径": "125", "出力": "15", "管理業者": "㈱小林鑿泉工業所", "管理者": "吉澤久男" }, "geometry": { "type": "Point", "coordinates": [ -10053.837401723212679, 29781.357699136446172 ] } },
{ "type": "Feature", "properties": { "機場名": "小野藤-69", "井戸径": "300", "井戸深": "105", "種類": "水中", "吐出口径": "150", "出力": "18.5", "管理業者": "㈲タナカサクセン", "管理者": "谷内一隆" }, "geometry": { "type": "Point", "coordinates": [ -9687.379800000227988, 29955.412799999117851 ] } },
{ "type": "Feature", "properties": { "機場名": "小野藤-73", "井戸径": "100", "井戸深": "7", "種類": "自吸式", "吐出口径": "100", "出力": "3.7", "管理業者": "㈲タナカサクセン", "管理者": "稲葉青史" }, "geometry": { "type": "Point", "coordinates": [ -10302.739099999889731, 29884.480499999597669 ] } },
{ "type": "Feature", "properties": { "機場名": "小野藤-74", "井戸径": "300", "井戸深": "108", "種類": "水中", "吐出口径": "150", "出力": "18.5", "管理業者": "㈲タナカサクセン", "管理者": "前澤　通" }, "geometry": { "type": "Point", "coordinates": [ -10401.795319187298446, 29635.828457391515258 ] } },
{ "type": "Feature", "properties": { "機場名": "小野藤-131", "井戸径": "200", "井戸深": "40", "種類": "水中", "吐出口径": "80", "出力": "3.7", "管理業者": "買上　㈱トチナン", "管理者": "海老沼正雄" }, "geometry": { "type": "Point", "coordinates": [ -10602.469600000418723, 27876.162599999457598 ] } },
{ "type": "Feature", "properties": { "機場名": "小野藤-150", "井戸径": "200", "井戸深": "40", "種類": "水中", "吐出口径": "80", "出力": "5.5", "管理業者": "㈱トチナン", "管理者": "海老沼正雄" }, "geometry": { "type": "Point", "coordinates": [ -10126.304800000041723, 28227.973500000312924 ] } },
{ "type": "Feature", "properties": { "機場名": "小野藤-135", "井戸径": "400", "井戸深": "40", "種類": "水中", "吐出口径": "150", "出力": "15", "管理業者": "㈱トチナン", "管理者": "岸　初美" }, "geometry": { "type": "Point", "coordinates": [ -9969.176099999807775, 27919.412699999287724 ] } },
{ "type": "Feature", "properties": { "機場名": "小野藤-139", "井戸径": "300", "井戸深": "70", "種類": "水中", "吐出口径": "150", "出力": "18.5", "管理業者": "㈱トチナン", "管理者": "小川友義" }, "geometry": { "type": "Point", "coordinates": [ -10514.41579999960959, 27425.192199999466538 ] } },
{ "type": "Feature", "properties": { "機場名": "小野藤-138", "井戸径": "300", "井戸深": "40", "種類": "水中", "吐出口径": "125", "出力": "15", "管理業者": "㈱小林鑿泉工業所", "管理者": "海老沼勝義" }, "geometry": { "type": "Point", "coordinates": [ -10102.205900000408292, 27355.558100000023842 ] } },
{ "type": "Feature", "properties": { "機場名": "小野藤-137", "井戸径": "400", "井戸深": "40", "種類": "水中", "吐出口径": "150", "出力": "18.5", "管理業者": "㈱小林鑿泉工業所", "管理者": "根岸敏夫" }, "geometry": { "type": "Point", "coordinates": [ -10038.925099999643862, 27231.086100000888109 ] } },
{ "type": "Feature", "properties": { "機場名": "小野藤-140", "井戸径": "", "井戸深": "", "種類": "水中汚水", "吐出口径": "100", "出力": "5.5", "管理業者": "㈱トチナン", "管理者": "光野昌良" }, "geometry": { "type": "Point", "coordinates": [ -10655.049100000411272, 27054.675100000575185 ] } },
{ "type": "Feature", "properties": { "機場名": "小野藤-141", "井戸径": "200", "井戸深": "60", "種類": "水中", "吐出口径": "80", "出力": "5.5", "管理業者": "㈱トチナン", "管理者": "光野昌良" }, "geometry": { "type": "Point", "coordinates": [ -10901.791718097641933, 27182.344131772591936 ] } },
{ "type": "Feature", "properties": { "機場名": "小野藤-142", "井戸径": "", "井戸深": "", "種類": "水中汚水", "吐出口径": "100", "出力": "3.7", "管理業者": "㈱トチナン", "管理者": "小川久志" }, "geometry": { "type": "Point", "coordinates": [ -10809.589060979715214, 26757.791267496511864 ] } },
{ "type": "Feature", "properties": { "機場名": "小野藤-122", "井戸径": "150", "井戸深": "15", "種類": "自吸式", "吐出口径": "125", "出力": "5.5", "管理業者": "㈱トチナン", "管理者": "小堀忠夫" }, "geometry": { "type": "Point", "coordinates": [ -8922.106271338594524, 27680.217072042392829 ] } },
{ "type": "Feature", "properties": { "機場名": "小野藤-120", "井戸径": "350", "井戸深": "32", "種類": "水中", "吐出口径": "150", "出力": "15", "管理業者": "㈱トチナン", "管理者": "橋本和幸" }, "geometry": { "type": "Point", "coordinates": [ -9108.159699999727309, 27959.999900000169873 ] } },
{ "type": "Feature", "properties": { "機場名": "小野藤-152", "井戸径": "350", "井戸深": "42", "種類": "水中", "吐出口径": "150", "出力": "18.5", "管理業者": "㈱トチナン", "管理者": "橋本和幸" }, "geometry": { "type": "Point", "coordinates": [ -9360.299609032930675, 27949.861603413119155 ] } },
{ "type": "Feature", "properties": { "機場名": "小野藤-123", "井戸径": "400", "井戸深": "40", "種類": "水中", "吐出口径": "150", "出力": "15", "管理業者": "㈱トチナン", "管理者": "渡辺直樹" }, "geometry": { "type": "Point", "coordinates": [ -9555.920800000429153, 27625.486700000241399 ] } },
{ "type": "Feature", "properties": { "機場名": "小野藤-124", "井戸径": "300", "井戸深": "40", "種類": "水中", "吐出口径": "125", "出力": "7.5", "管理業者": "㈱トチナン", "管理者": "小堀忠夫" }, "geometry": { "type": "Point", "coordinates": [ -9420.324000000022352, 27407.982200000435114 ] } },
{ "type": "Feature", "properties": { "機場名": "小野藤-136", "井戸径": "300", "井戸深": "115", "種類": "水中汚水", "吐出口径": "150", "出力": "7.5", "管理業者": "㈱トチナン", "管理者": "岸　初美" }, "geometry": { "type": "Point", "coordinates": [ -9700.622911576327169, 27860.462258860032307 ] } },
{ "type": "Feature", "properties": { "機場名": "小野藤-128", "井戸径": "350", "井戸深": "40", "種類": "水中", "吐出口径": "150", "出力": "18.5", "管理業者": "㈱トチナン", "管理者": "小林　明" }, "geometry": { "type": "Point", "coordinates": [ -9791.043897431547521, 27981.413088202178187 ] } },
{ "type": "Feature", "properties": { "機場名": "小野藤-129", "井戸径": "", "井戸深": "", "種類": "水中汚水", "吐出口径": "100", "出力": "3.7", "管理業者": "㈱トチナン", "管理者": "小林　明" }, "geometry": { "type": "Point", "coordinates": [ -9806.914763333150404, 27984.641831695054861 ] } },
{ "type": "Feature", "properties": { "機場名": "小野藤-125", "井戸径": "125", "井戸深": "22", "種類": "自吸式", "吐出口径": "125", "出力": "5.5", "管理業者": "㈱トチナン", "管理者": "渡辺直樹" }, "geometry": { "type": "Point", "coordinates": [ -9785.353900000452995, 27215.209300000220537 ] } },
{ "type": "Feature", "properties": { "機場名": "美田南部-6656", "井戸径": "300", "井戸深": " 80.0 ", "種類": "水中", "吐出口径": "150", "出力": "15.0", "管理業者": "野田鑿泉", "管理者": "山室利一" }, "geometry": { "type": "Point", "coordinates": [ -7116.670699999667704, 40018.307800000533462 ] } },
{ "type": "Feature", "properties": { "機場名": "美田南部-6820", "井戸径": "300", "井戸深": " 80.0 ", "種類": "水中", "吐出口径": "150", "出力": "15.0", "管理業者": "野田鑿泉", "管理者": "落合 進一" }, "geometry": { "type": "Point", "coordinates": [ -7332.791600000113249, 40015.688200000673532 ] } },
{ "type": "Feature", "properties": { "機場名": "美田南部-6084", "井戸径": "300", "井戸深": " 50.0 ", "種類": "水中", "吐出口径": "150", "出力": "15.0", "管理業者": "野田鑿泉", "管理者": "田名網利喜" }, "geometry": { "type": "Point", "coordinates": [ -7453.091400000266731, 40013.13289999961853 ] } },
{ "type": "Feature", "properties": { "機場名": "美田南部-4956", "井戸径": "125", "井戸深": " 30.0 ", "種類": "自吸式", "吐出口径": "125", "出力": "5.5", "管理業者": "野田鑿泉", "管理者": "田名網久雄" }, "geometry": { "type": "Point", "coordinates": [ -7623.207399999722838, 39677.087999999523163 ] } },
{ "type": "Feature", "properties": { "機場名": "美田南部-5317", "井戸径": "", "井戸深": " - ", "種類": "自吸式", "吐出口径": "", "出力": "0.0", "管理業者": "野田鑿泉", "管理者": "田名網基晴" }, "geometry": { "type": "Point", "coordinates": [ -7576.34360000025481, 39422.724600000306964 ] } },
{ "type": "Feature", "properties": { "機場名": "美田南部-6846", "井戸径": "125", "井戸深": " 25.0 ", "種類": "自吸式", "吐出口径": "125", "出力": "5.5", "管理業者": "野田鑿泉", "管理者": "田名網満" }, "geometry": { "type": "Point", "coordinates": [ -7135.512900000438094, 39715.759999999776483 ] } },
{ "type": "Feature", "properties": { "機場名": "美田南部-6282", "井戸径": "300", "井戸深": " 50.0 ", "種類": "水中", "吐出口径": "150", "出力": "15.0", "管理業者": "野田鑿泉", "管理者": "新村昇" }, "geometry": { "type": "Point", "coordinates": [ -7135.72759999986738, 39370.71820000000298 ] } },
{ "type": "Feature", "properties": { "機場名": "美田南部-5112", "井戸径": "300", "井戸深": " 50.0 ", "種類": "水中", "吐出口径": "150", "出力": "15.0", "管理業者": "野田鑿泉", "管理者": "落合國治" }, "geometry": { "type": "Point", "coordinates": [ -7303.588999999687076, 39213.260199999436736 ] } },
{ "type": "Feature", "properties": { "機場名": "美田南部-5167", "井戸径": "125", "井戸深": " 25.0 ", "種類": "自吸式", "吐出口径": "125", "出力": "5.5", "管理業者": "㈱小林鑿泉工業所", "管理者": "須賀隆" }, "geometry": { "type": "Point", "coordinates": [ -7815.871399999596179, 37174.342599999159575 ] } },
{ "type": "Feature", "properties": { "機場名": "美田南部-3906", "井戸径": "125", "井戸深": " 25.0 ", "種類": "自吸式", "吐出口径": "125", "出力": "5.5", "管理業者": "野田鑿泉", "管理者": "須藤益男" }, "geometry": { "type": "Point", "coordinates": [ -7416.803700000047684, 37293.11879999935627 ] } },
{ "type": "Feature", "properties": { "機場名": "美田南部-4998", "井戸径": "125", "井戸深": " 25.0 ", "種類": "自吸式", "吐出口径": "125", "出力": "5.5", "管理業者": "㈱小林鑿泉工業所", "管理者": "塚原孝典" }, "geometry": { "type": "Point", "coordinates": [ -7115.436599999666214, 37286.116499999538064 ] } },
{ "type": "Feature", "properties": { "機場名": "美田南部-4741", "井戸径": "300", "井戸深": " 25.0 ", "種類": "自吸式", "吐出口径": "125", "出力": "5.5", "管理業者": "㈱小林鑿泉工業所", "管理者": "高科幸司" }, "geometry": { "type": "Point", "coordinates": [ -6795.119800000451505, 37258.144700000062585 ] } },
{ "type": "Feature", "properties": { "機場名": "美田南部-3147", "井戸径": "450", "井戸深": " 60.0 ", "種類": "水中", "吐出口径": "150", "出力": "15.0", "管理業者": "㈱小林鑿泉工業所", "管理者": "塚原孝三" }, "geometry": { "type": "Point", "coordinates": [ -6727.771599999628961, 37360.842000000178814 ] } },
{ "type": "Feature", "properties": { "機場名": "美田南部-3577", "井戸径": "450", "井戸深": " 55.0 ", "種類": "水中", "吐出口径": "150", "出力": "11.0", "管理業者": "㈱小林鑿泉工業所", "管理者": "大出栄喜" }, "geometry": { "type": "Point", "coordinates": [ -6566.947599999606609, 37346.18720000050962 ] } },
{ "type": "Feature", "properties": { "機場名": "美田南部-6120", "井戸径": "450", "井戸深": " 80.0 ", "種類": "水中", "吐出口径": "150", "出力": "15.0", "管理業者": "㈱トチナン", "管理者": "大出佳正" }, "geometry": { "type": "Point", "coordinates": [ -6446.191399999894202, 37238.36849999986589 ] } },
{ "type": "Feature", "properties": { "機場名": "美田南部-5157", "井戸径": "300", "井戸深": " 25.0 ", "種類": "自吸式", "吐出口径": "125", "出力": "5.5", "管理業者": "野田鑿泉", "管理者": "大出佳正" }, "geometry": { "type": "Point", "coordinates": [ -6588.874200000427663, 36938.648600000888109 ] } },
{ "type": "Feature", "properties": { "機場名": "美田南部-3241", "井戸径": "300", "井戸深": " 30.0 ", "種類": "水中", "吐出口径": "125", "出力": "11.0", "管理業者": "㈱小林鑿泉工業所", "管理者": "大出康昭" }, "geometry": { "type": "Point", "coordinates": [ -6831.139899999834597, 36828.651399999856949 ] } },
{ "type": "Feature", "properties": { "機場名": "美田南部-2845", "井戸径": "300", "井戸深": " 55.0 ", "種類": "水中", "吐出口径": "150", "出力": "11.0", "管理業者": "㈱トチナン", "管理者": "速見勝夫" }, "geometry": { "type": "Point", "coordinates": [ -7134.761300000362098, 37057.183399999514222 ] } },
{ "type": "Feature", "properties": { "機場名": "美田南部-6355", "井戸径": "300", "井戸深": " 29.0 ", "種類": "水中", "吐出口径": "125", "出力": "11.0", "管理業者": "㈱トチナン", "管理者": "斎藤隆夫" }, "geometry": { "type": "Point", "coordinates": [ -7161.172500000335276, 36689.187400000169873 ] } },
{ "type": "Feature", "properties": { "機場名": "美田南部-2848", "井戸径": "", "井戸深": "", "種類": "自吸式", "吐出口径": "", "出力": "", "管理業者": "野田鑿泉", "管理者": "田名網利喜" }, "geometry": { "type": "Point", "coordinates": [ -6065.537399999797344, 35429.158700000494719 ] } },
{ "type": "Feature", "properties": { "機場名": "美田南部-1457", "井戸径": "300", "井戸深": " 86.0 ", "種類": "水中", "吐出口径": "150", "出力": "11.0", "管理業者": "㈱トチナン", "管理者": "岸俊男" }, "geometry": { "type": "Point", "coordinates": [ -6041.219800000078976, 35818.691600000485778 ] } },
{ "type": "Feature", "properties": { "機場名": "美田南部-3908", "井戸径": "250", "井戸深": " 30.0 ", "種類": "水中", "吐出口径": "100", "出力": "7.5", "管理業者": "㈱トチナン", "管理者": "横塚清" }, "geometry": { "type": "Point", "coordinates": [ -6019.909799999557436, 36000.954199999570847 ] } },
{ "type": "Feature", "properties": { "機場名": "美田南部-2763", "井戸径": "300", "井戸深": " 80.0 ", "種類": "水中", "吐出口径": "150", "出力": "11.0", "管理業者": "㈱トチナン", "管理者": "松本武男" }, "geometry": { "type": "Point", "coordinates": [ -6012.231900000013411, 36260.853700000792742 ] } },
{ "type": "Feature", "properties": { "機場名": "美田南部-3242", "井戸径": "300", "井戸深": " 80.0 ", "種類": "水中", "吐出口径": "150", "出力": "15.0", "管理業者": "㈱小林鑿泉工業所", "管理者": "茂呂功好" }, "geometry": { "type": "Point", "coordinates": [ -6260.675300000235438, 36396.348600000143051 ] } },
{ "type": "Feature", "properties": { "機場名": "美田南部-664", "井戸径": "300", "井戸深": " 80.0 ", "種類": "水中", "吐出口径": "150", "出力": "11.0", "管理業者": "㈱トチナン", "管理者": "横塚行男" }, "geometry": { "type": "Point", "coordinates": [ -5980.291500000283122, 36551.226500000804663 ] } },
{ "type": "Feature", "properties": { "機場名": "美田南部-6282", "井戸径": "300", "井戸深": " 50.0 ", "種類": "水中", "吐出口径": "150", "出力": "15.0", "管理業者": "野田鑿泉", "管理者": "新村昇" }, "geometry": { "type": "Point", "coordinates": [ -5803.143199999816716, 36423.379100000485778 ] } },
{ "type": "Feature", "properties": { "機場名": "美田南部-2846", "井戸径": "350", "井戸深": " 51.0 ", "種類": "水中", "吐出口径": "150", "出力": "11.0", "管理業者": "㈱小林鑿泉工業所", "管理者": "茂呂功好" }, "geometry": { "type": "Point", "coordinates": [ -5612.843100000172853, 36873.378699999302626 ] } },
{ "type": "Feature", "properties": { "機場名": "美田南部-3572", "井戸径": "125", "井戸深": " 30.0 ", "種類": "水中", "吐出口径": "125", "出力": "5.5", "管理業者": "㈱トチナン", "管理者": "慶野栄" }, "geometry": { "type": "Point", "coordinates": [ -5721.601400000043213, 36881.323499999940395 ] } },
{ "type": "Feature", "properties": { "機場名": "美田南部-4743", "井戸径": "250", "井戸深": " 30.0 ", "種類": "水中", "吐出口径": "100", "出力": "7.5", "管理業者": "㈱トチナン", "管理者": "松本上" }, "geometry": { "type": "Point", "coordinates": [ -5827.334499999880791, 36886.675300000235438 ] } },
{ "type": "Feature", "properties": { "機場名": "美田南部-5950", "井戸径": "250", "井戸深": " 50.0 ", "種類": "水中", "吐出口径": "100", "出力": "7.5", "管理業者": "㈱小林鑿泉工業所", "管理者": "松本茂男" }, "geometry": { "type": "Point", "coordinates": [ -6103.973199999891222, 36906.124299999326468 ] } },
{ "type": "Feature", "properties": { "機場名": "美田南部-4428", "井戸径": "", "井戸深": " - ", "種類": "水中", "吐出口径": "125", "出力": "5.5", "管理業者": "㈱トチナン", "管理者": "横塚行男" }, "geometry": { "type": "Point", "coordinates": [ -6349.940899999812245, 36922.76549999974668 ] } },
{ "type": "Feature", "properties": { "機場名": "美田南部-4976", "井戸径": "125", "井戸深": " 25.0 ", "種類": "自吸式", "吐出口径": "125", "出力": "5.5", "管理業者": "㈱小林鑿泉工業所", "管理者": "慶野貞夫" }, "geometry": { "type": "Point", "coordinates": [ -6331.525899999774992, 37228.995699999853969 ] } },
{ "type": "Feature", "properties": { "機場名": "美田南部-2555", "井戸径": "125", "井戸深": " 30.0 ", "種類": "水中", "吐出口径": "100", "出力": "7.5", "管理業者": "㈱小林鑿泉工業所", "管理者": "慶野豊" }, "geometry": { "type": "Point", "coordinates": [ -6081.963800000026822, 37210.411299999803305 ] } },
{ "type": "Feature", "properties": { "機場名": "美田南部-1460", "井戸径": "300", "井戸深": " 60.0 ", "種類": "水中", "吐出口径": "150", "出力": "11.0", "管理業者": "野田鑿泉", "管理者": "小峰賢一" }, "geometry": { "type": "Point", "coordinates": [ -5810.497600000351667, 37128.966000000014901 ] } },
{ "type": "Feature", "properties": { "機場名": "美田南部-1461", "井戸径": "125", "井戸深": " 32.0 ", "種類": "水中", "吐出口径": "125", "出力": "5.5", "管理業者": "㈱小林鑿泉工業所", "管理者": "五十畑有章" }, "geometry": { "type": "Point", "coordinates": [ -5598.456500000320375, 37102.834000000730157 ] } },
{ "type": "Feature", "properties": { "機場名": "美田南部-5363", "井戸径": "300", "井戸深": " 60.0 ", "種類": "水中", "吐出口径": "150", "出力": "15.0", "管理業者": "㈱小林鑿泉工業所", "管理者": "五十畑有章" }, "geometry": { "type": "Point", "coordinates": [ -5572.099000000394881, 37354.169800000265241 ] } },
{ "type": "Feature", "properties": { "機場名": "美田南部-6121", "井戸径": "300", "井戸深": " 50.0 ", "種類": "水中", "吐出口径": "150", "出力": "15.0", "管理業者": "㈱小林鑿泉工業所", "管理者": "慶野貞夫" }, "geometry": { "type": "Point", "coordinates": [ -5762.681499999947846, 37623.032800000160933 ] } },
{ "type": "Feature", "properties": { "機場名": "美田南部-6510", "井戸径": "", "井戸深": " - ", "種類": "自吸式", "吐出口径": "125", "出力": "5.5", "管理業者": "㈱トチナン", "管理者": "慶野貞夫" }, "geometry": { "type": "Point", "coordinates": [ -5823.480399999767542, 37707.839800000190735 ] } },
{ "type": "Feature", "properties": { "機場名": "美田南部-5520", "井戸径": "125", "井戸深": " 25.0 ", "種類": "水中", "吐出口径": "100", "出力": "7.5", "管理業者": "㈱小林鑿泉工業所", "管理者": "慶野貞夫" }, "geometry": { "type": "Point", "coordinates": [ -5842.556800000369549, 37722.431600000709295 ] } },
{ "type": "Feature", "properties": { "機場名": "美田南部-2556", "井戸径": "125", "井戸深": " 25.0 ", "種類": "水中", "吐出口径": "125", "出力": "5.5", "管理業者": "㈱小林鑿泉工業所", "管理者": "慶野栄" }, "geometry": { "type": "Point", "coordinates": [ -5947.261612529744525, 37198.668870673151105 ] } },
{ "type": "Feature", "properties": { "機場名": "美田南部-5851", "井戸径": "250", "井戸深": " 50.0 ", "種類": "水中", "吐出口径": "100", "出力": "7.5", "管理業者": "㈱小林鑿泉工業所", "管理者": "小峰儀則" }, "geometry": { "type": "Point", "coordinates": [ -6166.144879174007656, 37459.907073531314381 ] } },
{ "type": "Feature", "properties": { "機場名": "美田南部-2554", "井戸径": "250", "井戸深": " 30.0 ", "種類": "水中", "吐出口径": "100", "出力": "7.5", "管理業者": "㈱トチナン", "管理者": "中田征完" }, "geometry": { "type": "Point", "coordinates": [ -6315.155399999581277, 37575.529899999499321 ] } },
{ "type": "Feature", "properties": { "機場名": "美田南部-3573", "井戸径": "250", "井戸深": " 30.0 ", "種類": "水中", "吐出口径": "100", "出力": "7.5", "管理業者": "㈱トチナン", "管理者": "中田隆夫" }, "geometry": { "type": "Point", "coordinates": [ -6142.418700463360437, 37700.876076061329513 ] } },
{ "type": "Feature", "properties": { "機場名": "美田南部-4742", "井戸径": "125", "井戸深": " 45.0 ", "種類": "水中", "吐出口径": "125", "出力": "5.5", "管理業者": "㈱小林鑿泉工業所", "管理者": "中田隆夫" }, "geometry": { "type": "Point", "coordinates": [ -5929.455299999564886, 37741.083100000396371 ] } },
{ "type": "Feature", "properties": { "機場名": "美田南部-2843", "井戸径": "300", "井戸深": " 55.0 ", "種類": "水中", "吐出口径": "150", "出力": "11.0", "管理業者": "㈱小林鑿泉工業所", "管理者": "中田勝健" }, "geometry": { "type": "Point", "coordinates": [ -6021.518699999898672, 37977.108899999409914 ] } },
{ "type": "Feature", "properties": { "機場名": "美田南部-2590", "井戸径": "300", "井戸深": " 60.0 ", "種類": "水中", "吐出口径": "150", "出力": "11.0", "管理業者": "㈱トチナン", "管理者": "大塚 卓" }, "geometry": { "type": "Point", "coordinates": [ -6115.783099999651313, 38110.818299999460578 ] } },
{ "type": "Feature", "properties": { "機場名": "美田南部-6511", "井戸径": "", "井戸深": " 8.0 ", "種類": "自吸式", "吐出口径": "125", "出力": "5.5", "管理業者": "㈱小林鑿泉工業所", "管理者": "大塚 卓" }, "geometry": { "type": "Point", "coordinates": [ -6125.660400000400841, 38106.931800000369549 ] } },
{ "type": "Feature", "properties": { "機場名": "美田南部-2935", "井戸径": "300", "井戸深": " 55.0 ", "種類": "水中", "吐出口径": "150", "出力": "11.0", "管理業者": "㈱小林鑿泉工業所", "管理者": "高橋利夫" }, "geometry": { "type": "Point", "coordinates": [ -6208.007500000298023, 38020.22580000013113 ] } },
{ "type": "Feature", "properties": { "機場名": "美田南部-2591", "井戸径": "300", "井戸深": " 50.0 ", "種類": "水中", "吐出口径": "150", "出力": "15.0", "管理業者": "㈱小林鑿泉工業所", "管理者": "高科幸司" }, "geometry": { "type": "Point", "coordinates": [ -7043.073699999600649, 38334.798100000247359 ] } },
{ "type": "Feature", "properties": { "機場名": "小野藤-126-2", "井戸径": "", "井戸深": "", "種類": "水中汚水", "吐出口径": "250", "出力": "22", "管理業者": "㈱トチナン", "管理者": "小林　明" }, "geometry": { "type": "Point", "coordinates": [ -10034.427491429754809, 28854.356188050762285 ] } },
{ "type": "Feature", "properties": { "機場名": null, "井戸径": null, "井戸深": null, "種類": null, "吐出口径": null, "出力": null, "管理業者": null, "管理者": null }, "geometry": { "type": "Point", "coordinates": [ -11961.227300000376999, 27408.380300000309944 ] } },
{ "type": "Feature", "properties": { "機場名": "美田南部-4429", "井戸径": "300", "井戸深": "", "種類": "水中", "吐出口径": "150", "出力": "15.0", "管理業者": "㈱小林鑿泉工業所", "管理者": "慶野貞夫" }, "geometry": { "type": "Point", "coordinates": [ -5703.002456311326569, 37136.90666171698831 ] } },
{ "type": "Feature", "properties": { "機場名": "美田南部-6354", "井戸径": "300", "井戸深": " 30.0 ", "種類": "水中", "吐出口径": "125", "出力": "11.0", "管理業者": "㈱トチナン", "管理者": "横塚行男" }, "geometry": { "type": "Point", "coordinates": [ -6463.676721028688007, 36930.822556322491437 ] } },
{ "type": "Feature", "properties": { "機場名": "美田南部-50", "井戸径": "", "井戸深": "", "種類": "水中", "吐出口径": "", "出力": "", "管理業者": "㈱トチナン", "管理者": "茂呂功好" }, "geometry": { "type": "Point", "coordinates": [ -5398.66787415449744, 36959.887125243025366 ] } },
{ "type": "Feature", "properties": { "機場名": "美田南部-371", "井戸径": "", "井戸深": "", "種類": "自吸式", "吐出口径": "", "出力": "", "管理業者": "野田鑿泉", "管理者": "岸俊男" }, "geometry": { "type": "Point", "coordinates": [ -6454.519898932553588, 35457.334178005672584 ] } },
{ "type": "Feature", "properties": { "機場名": "清水川-1-2", "井戸径": "250", "井戸深": "50", "種類": "自吸式", "吐出口径": "100", "出力": "3.7", "管理業者": "㈱小林鑿泉工業所", "管理者": "玉野辰夫" }, "geometry": { "type": "Point", "coordinates": [ -6827.484306617670882, 35109.504690892135841 ] } },
{ "type": "Feature", "properties": { "機場名": "清水川-12-2", "井戸径": "", "井戸深": "", "種類": "水中", "吐出口径": "100", "出力": "5.5", "管理業者": "㈱小林鑿泉工業所", "管理者": "山﨑信雄" }, "geometry": { "type": "Point", "coordinates": [ -5518.392396257696419, 34184.165185099758673 ] } },
{ "type": "Feature", "properties": { "機場名": "清水川-41", "井戸径": "", "井戸深": "", "種類": "自吸式", "吐出口径": "125", "出力": "5.5", "管理業者": "㈱小林鑿泉工業所", "管理者": "小林勝治" }, "geometry": { "type": "Point", "coordinates": [ -6881.869156880993614, 34266.35415103964624 ] } },
{ "type": "Feature", "properties": { "機場名": "清水川-21-2", "井戸径": "", "井戸深": "", "種類": "水中", "吐出口径": "100", "出力": "5.5", "管理業者": "㈱小林鑿泉工業所", "管理者": "山﨑甚治" }, "geometry": { "type": "Point", "coordinates": [ -5459.707176103082929, 33436.308617709190003 ] } },
{ "type": "Feature", "properties": { "機場名": "清水川-39", "井戸径": "", "井戸深": "", "種類": "自吸式", "吐出口径": "100", "出力": "3.7", "管理業者": "㈱小林鑿泉工業所", "管理者": "浅野嘉彦" }, "geometry": { "type": "Point", "coordinates": [ -5992.063310923233985, 33596.905189856865036 ] } },
{ "type": "Feature", "properties": { "機場名": "清水川-40", "井戸径": "", "井戸深": "", "種類": "自吸式", "吐出口径": "125", "出力": "5.5", "管理業者": "㈱小林鑿泉工業所", "管理者": "椎名正" }, "geometry": { "type": "Point", "coordinates": [ -6770.265496119496675, 32419.839578113842435 ] } },
{ "type": "Feature", "properties": { "機場名": "清水川-42", "井戸径": "", "井戸深": "", "種類": "自吸式", "吐出口径": "125", "出力": "5.5", "管理業者": "㈱小林鑿泉工業所", "管理者": "福田浩一郎" }, "geometry": { "type": "Point", "coordinates": [ -6799.544259708959544, 31851.152732142956665 ] } },
{ "type": "Feature", "properties": { "機場名": "美田南部-2848", "井戸径": "", "井戸深": "", "種類": "自吸式", "吐出口径": "", "出力": "", "管理業者": "野田鑿泉", "管理者": "田名網利喜" }, "geometry": { "type": "Point", "coordinates": [ -7745.76774572101931, 40033.735091492293577 ] } },
{ "type": "Feature", "properties": { "機場名": "美田南部-292", "井戸径": "", "井戸深": "", "種類": "自吸式", "吐出口径": "", "出力": "", "管理業者": "野田鑿泉", "管理者": "斎藤隆夫" }, "geometry": { "type": "Point", "coordinates": [ -7243.885951464470963, 37073.241415510048682 ] } },
{ "type": "Feature", "properties": { "機場名": "小野藤-154", "井戸径": "", "井戸深": "", "種類": "水中汚水", "吐出口径": "100", "出力": "3.7", "管理業者": "㈱トチナン", "管理者": "田中米男" }, "geometry": { "type": "Point", "coordinates": [ -9470.990468245567172, 29252.965906024070136 ] } },
{ "type": "Feature", "properties": { "機場名": "小野藤-157", "井戸径": "300", "井戸深": "70", "種類": "水中", "吐出口径": "150", "出力": "18.5", "管理業者": "山さく建工㈱", "管理者": "玉野一雄" }, "geometry": { "type": "Point", "coordinates": [ -7544.659089569800017, 34995.067298735215445 ] } },
{ "type": "Feature", "properties": { "機場名": "小野藤-162", "井戸径": "100", "井戸深": "12(買上)", "種類": "自吸式", "吐出口径": "100", "出力": "3.7", "管理業者": "㈱小林鑿泉工業所", "管理者": "古川和義" }, "geometry": { "type": "Point", "coordinates": [ -8420.301541885994084, 32295.233202514034929 ] } },
{ "type": "Feature", "properties": { "機場名": "小野藤-158", "井戸径": "", "井戸深": "", "種類": "自吸式", "吐出口径": "100", "出力": "3.7", "管理業者": "㈱小林鑿泉工業所", "管理者": "古川和義" }, "geometry": { "type": "Point", "coordinates": [ -8460.460296222167017, 32216.263106459828123 ] } },
{ "type": "Feature", "properties": { "機場名": "小野藤-174", "井戸径": "250", "井戸深": "100", "種類": "水中", "吐出口径": "100", "出力": "7.5", "管理業者": "㈱小林鑿泉工業所", "管理者": "篠原正巳" }, "geometry": { "type": "Point", "coordinates": [ -9269.757322884513997, 30862.377049441485724 ] } },
{ "type": "Feature", "properties": { "機場名": "小野藤-159", "井戸径": "", "井戸深": "", "種類": "水中汚水", "吐出口径": "100", "出力": "3.7", "管理業者": "㈱トチナン", "管理者": "白井昭雄" }, "geometry": { "type": "Point", "coordinates": [ -9060.142773639272491, 30957.382345794416324 ] } },
{ "type": "Feature", "properties": { "機場名": "小野藤-160", "井戸径": "100", "井戸深": "12(買上)", "種類": "自吸式", "吐出口径": "", "出力": "2.2", "管理業者": "㈱小林鑿泉工業所", "管理者": "松本秋子" }, "geometry": { "type": "Point", "coordinates": [ -8983.725057317264145, 32041.216632416839275 ] } },
{ "type": "Feature", "properties": { "機場名": "小野藤-175", "井戸径": "100", "井戸深": "8.5", "種類": "自吸式", "吐出口径": "100", "出力": "3.7", "管理業者": "㈱小林鑿泉工業所", "管理者": "海老沼　操" }, "geometry": { "type": "Point", "coordinates": [ -9051.271437695977511, 31898.888851731615432 ] } },
{ "type": "Feature", "properties": { "機場名": "小野藤-165", "井戸径": "125", "井戸深": "9", "種類": "自吸式", "吐出口径": "100", "出力": "3.7", "管理業者": "㈱小林鑿泉工業所", "管理者": "山野井　洋" }, "geometry": { "type": "Point", "coordinates": [ -11126.40403593937117, 29068.590064180512854 ] } },
{ "type": "Feature", "properties": { "機場名": "小野藤-166", "井戸径": "100", "井戸深": "12", "種類": "自吸式", "吐出口径": "100", "出力": "3.7", "管理業者": "㈱小林鑿泉工業所", "管理者": "池貝孝雄" }, "geometry": { "type": "Point", "coordinates": [ -11536.866927633598607, 27363.717665927189955 ] } },
{ "type": "Feature", "properties": { "機場名": "小野藤-163", "井戸径": "", "井戸深": "", "種類": "水中汚水", "吐出口径": "100", "出力": "7.5", "管理業者": "㈱トチナン", "管理者": "小川友義" }, "geometry": { "type": "Point", "coordinates": [ -10622.413133599387947, 27605.339016323530814 ] } },
{ "type": "Feature", "properties": { "機場名": "小野藤-173", "井戸径": "", "井戸深": "", "種類": "自吸式", "吐出口径": "", "出力": "", "管理業者": "㈱小林鑿泉工業所", "管理者": "石川啓之" }, "geometry": { "type": "Point", "coordinates": [ -7589.016303513265484, 32165.217648723519233 ] } },
{ "type": "Feature", "properties": { "機場名": "小野藤-30-2", "井戸径": "100", "井戸深": "8", "種類": "自吸式", "吐出口径": "100", "出力": "3.7", "管理業者": "山さく建工㈱", "管理者": "川尻久夫" }, "geometry": { "type": "Point", "coordinates": [ -7560.97449888076244, 32284.258624377926026 ] } },
{ "type": "Feature", "properties": { "機場名": "小野藤-168", "井戸径": "100", "井戸深": "8.5", "種類": "自吸式", "吐出口径": "100", "出力": "3.7", "管理業者": "㈱小林鑿泉工業所", "管理者": "増田信之" }, "geometry": { "type": "Point", "coordinates": [ -8078.556693716750488, 32518.806058529029542 ] } },
{ "type": "Feature", "properties": { "機場名": "小野藤-172", "井戸径": "100", "井戸深": "8.5", "種類": "自吸式", "吐出口径": "100", "出力": "3.7", "管理業者": "㈱小林鑿泉工業所", "管理者": "増山一典" }, "geometry": { "type": "Point", "coordinates": [ -8076.213367424339594, 32555.410767988381849 ] } },
{ "type": "Feature", "properties": { "機場名": "小野藤-161", "井戸径": "100", "井戸深": "12(買上)", "種類": "自吸式", "吐出口径": "100", "出力": "3.7", "管理業者": "㈱小林鑿泉工業所", "管理者": "綾部欽一" }, "geometry": { "type": "Point", "coordinates": [ -8579.076543986129764, 32579.85459037606779 ] } },
{ "type": "Feature", "properties": { "機場名": "小野藤-167", "井戸径": "100", "井戸深": "8.5", "種類": "自吸式", "吐出口径": "100", "出力": "3.7", "管理業者": "㈱小林鑿泉工業所", "管理者": "増田信之" }, "geometry": { "type": "Point", "coordinates": [ -8332.426805920686093, 32545.524860192294 ] } },
{ "type": "Feature", "properties": { "機場名": "小野藤-164", "井戸径": "", "井戸深": "", "種類": "自吸式", "吐出口径": "", "出力": "", "管理業者": "㈱トチナン", "管理者": "-" }, "geometry": { "type": "Point", "coordinates": [ -7664.974248895778146, 30990.727865178472712 ] } },
{ "type": "Feature", "properties": { "機場名": "小野藤-169", "井戸径": "300", "井戸深": "12", "種類": "自吸式", "吐出口径": "100", "出力": "3.7", "管理業者": "㈱トチナン", "管理者": "野村晴司" }, "geometry": { "type": "Point", "coordinates": [ -8141.548233614601486, 30695.410169177543139 ] } },
{ "type": "Feature", "properties": { "機場名": "小野藤-170", "井戸径": "150", "井戸深": "15", "種類": "自吸式", "吐出口径": "100", "出力": "3.7", "管理業者": "㈱小林鑿泉工業所", "管理者": "古川和義" }, "geometry": { "type": "Point", "coordinates": [ -8621.568860755178321, 32228.345882655081368 ] } },
{ "type": "Feature", "properties": { "機場名": "小野藤-171", "井戸径": "", "井戸深": "", "種類": "自吸式", "吐出口径": "100", "出力": "3.7", "管理業者": "㈱トチナン", "管理者": "横田芳昭" }, "geometry": { "type": "Point", "coordinates": [ -6948.323230899744885, 31897.045109586273611 ] } },
{ "type": "Feature", "properties": { "機場名": "小野藤-向沼1", "井戸径": "", "井戸深": "", "種類": "自吸式", "吐出口径": "125", "出力": "5.5", "管理業者": "山さく建工㈱", "管理者": "黒須良一" }, "geometry": { "type": "Point", "coordinates": [ -6975.714111562139806, 31520.837091819284979 ] } },
{ "type": "Feature", "properties": { "機場名": "小野藤-向沼2", "井戸径": "300", "井戸深": "60", "種類": "水中", "吐出口径": "125", "出力": "18.5", "管理業者": "㈱小林鑿泉工業所", "管理者": "古河利守" }, "geometry": { "type": "Point", "coordinates": [ -6845.268947951332848, 31403.462481528364151 ] } },
{ "type": "Feature", "properties": { "機場名": "小野藤-176", "井戸径": "100", "井戸深": "8.5", "種類": "自吸式", "吐出口径": "100", "出力": "3.7", "管理業者": "㈱小林鑿泉工業所", "管理者": "渡辺正雄" }, "geometry": { "type": "Point", "coordinates": [ -8832.617939585185013, 30559.969164096128225 ] } }
]
}
